source_id,latitude,latitude_errors,longitude,longitude_errors,depth,depth_errors,depth_type,origin_evaluation_mode,origievaluation_status,time,region,mag,mag_errors,magnitude_type,creation_info,evaluation_mode,evaluation_status,station_network_code,station_code,trace_channel,station_location_code,trace_sampling_rate_hz,trace_start_time,trace_Peak_M2.4_time,trace_Peak_M2.4_arrival_sample,trace_noise_start_time,trace_noise_start_arrival_sample,trace_Sg_time,trace_Sg_arrival_sample,trace_start_arrival_sample,trace_S_spectral_start_time,trace_S_spectral_start_arrival_sample,trace_S_spectral_end_time,trace_S_spectral_end_arrival_sample,trace_noise_end_time,trace_noise_end_arrival_sample,trace_P_spectral_end_time,trace_P_spectral_end_arrival_sample,trace_Pg_time,trace_Pg_arrival_sample,trace_end_time,trace_end_arrival_sample,trace_P_spectral_start_time,trace_P_spectral_start_arrival_sample,trace_name,trace_y1_time,trace_y1_arrival_sample,trace_y2_time,trace_y2_arrival_sample,trace_Peak_MbS_time,trace_Peak_MbS_arrival_sample,trace_Peak_MbP_time,trace_Peak_MbP_arrival_sample,trace_x1_time,trace_x1_arrival_sample,trace_y3_time,trace_y3_arrival_sample,trace_x3_time,trace_x3_arrival_sample,trace_x2_time,trace_x2_arrival_sample
smi:insight.mqs/mqs2020blio,4.5024,,135.6234,,,,,manual,reviewed,2020-01-21T10:21:45.000000Z,,1.7,,MW,,,,XB,ELYSE,BH,02,100,2020-01-21T10:25:04.832086Z,2020-01-21T10:31:59.481125Z,12014,2020-01-21T10:21:58.723151Z,0,2020-01-21T10:31:25.043410Z,11325.0,3721,2020-01-21T10:31:42.808604Z,11681,2020-01-21T10:38:34.064122Z,19906,2020-01-21T10:24:57.817435Z,3581,2020-01-21T10:31:08.608561Z,10997,2020-01-21T10:26:58.426603Z,5993.0,2020-01-21T10:42:08.134476Z,24187,2020-01-21T10:27:06.643256Z,6157,"bucket5$61,:3,:24188",,,,,,,,,,,,,,,,
smi:insight.mqs/mqs2020bpex,4.5024,,135.6234,,,,,manual,reviewed,2020-01-23T13:02:47.000000Z,,1.7,,MW,,,,XB,ELYSE,BH,02,100,2020-01-23T13:11:53.390985Z,2020-01-23T13:18:06.105393Z,17484,2020-01-23T13:03:31.831535Z,0,2020-01-23T13:16:33.749556Z,15637.0,10030,2020-01-23T13:17:59.459668Z,17351,2020-01-23T13:26:37.048585Z,27703,2020-01-23T13:09:28.361747Z,7129,2020-01-23T13:15:58.791009Z,14938,2020-01-23T13:12:00.129927Z,10165.0,2020-01-23T13:27:54.209691Z,29246,2020-01-23T13:13:41.584007Z,12194,"bucket3$32,:3,:29247",,,,,,,,,,,,,,,,
smi:insight.mqs/mqs2020bupk,4.5024,,135.6234,,,,,manual,reviewed,2020-01-26T12:02:05.000000Z,,1.7,,MW,,,,XB,ELYSE,BH,02,100,2020-01-26T12:12:37.449824Z,2020-01-26T12:19:15.637427Z,17102,2020-01-26T12:05:00.491548Z,0,2020-01-26T12:18:59.196949Z,16774.0,9139,2020-01-26T12:19:33.721117Z,17464,2020-01-26T12:31:42.252480Z,32035,2020-01-26T12:10:46.169829Z,6913,2020-01-26T12:18:00.570589Z,15601,2020-01-26T12:13:47.167147Z,10533.0,2020-01-26T12:32:11.808915Z,32626,2020-01-26T12:13:52.926728Z,10648,"bucket3$33,:3,:32627",,,,,,,,,,,,,,,,
smi:insight.mqs/mqs2020buxy,4.5024,,135.6234,,,,,manual,reviewed,2020-01-26T16:21:36.000000Z,,1.7,,MW,,,,XB,ELYSE,BH,02,100,2020-01-26T16:31:20.119770Z,2020-01-26T16:37:49.815658Z,12659,2020-01-26T16:27:16.784423Z,0,2020-01-26T16:34:55.141890Z,9166.0,4865,2020-01-26T16:35:31.554030Z,9894,2020-01-26T16:44:14.692122Z,20357,2020-01-26T16:30:42.130444Z,4106,2020-01-26T16:34:09.528894Z,8254,2020-01-26T16:31:14.263367Z,4748.0,2020-01-26T16:45:36.793067Z,21999,2020-01-26T16:31:28.668488Z,5036,"bucket1$48,:3,:22000",,,,,,,,,,,,,,,,
smi:insight.mqs/mqs2020byri,4.5024,,135.6234,,,,,manual,reviewed,2020-01-28T17:33:34.000000Z,,1.7,,MW,,,,XB,ELYSE,BH,02,100,2020-01-28T17:38:18.756785Z,2020-01-28T17:42:51.621381Z,14312,2020-01-28T17:30:55.941250Z,0,2020-01-28T17:42:24.193581Z,13764.0,8855,2020-01-28T17:42:29.052651Z,13861,2020-01-28T17:46:37.407818Z,18828,2020-01-28T17:35:55.334749Z,5987,2020-01-28T17:41:50.844163Z,13097,2020-01-28T17:38:21.287044Z,8906.0,2020-01-28T17:53:19.900972Z,26878,2020-01-28T17:39:46.666579Z,10613,"bucket5$62,:3,:26879",,,,,,,,,,,,,,,,
smi:insight.mqs/mqs2020bzzw,4.5024,,135.6234,,,,,manual,reviewed,2020-01-29T11:00:00.000000Z,,1.6,,MW,,,,XB,ELYSE,BH,02,100,2020-01-29T11:03:21.940549Z,2020-01-29T11:10:44.718511Z,12208,2020-01-29T11:00:34.264869Z,0,2020-01-29T11:07:49.291126Z,8700.0,3353,2020-01-29T11:08:49.503770Z,9904,2020-01-29T11:12:49.975458Z,14713,2020-01-29T11:02:36.882912Z,2451,2020-01-29T11:06:36.158098Z,7237,2020-01-29T11:03:23.497286Z,3384.0,2020-01-29T11:21:05.486803Z,24623,2020-01-29T11:03:27.751152Z,3469,"bucket5$63,:3,:24624",,,,,,,,,,,,,,,,
smi:insight.mqs/mqs2020cbxd,4.5024,,135.6234,,,,,manual,reviewed,2020-01-30T11:53:45.000000Z,,1.8,,MW,,,,XB,ELYSE,BH,02,100,2020-01-30T11:55:17.998981Z,2020-01-30T12:02:44.416912Z,18455,2020-01-30T11:47:21.599295Z,0,2020-01-30T12:00:52.692971Z,16221.0,9527,2020-01-30T12:01:08.107394Z,16529,2020-01-30T12:11:40.325555Z,29173,2020-01-30T11:53:01.734244Z,6802,2020-01-30T11:59:46.826132Z,14903,2020-01-30T11:55:36.737960Z,9902.0,2020-01-30T12:12:20.876248Z,29984,2020-01-30T11:55:28.914432Z,9745,"bucket3$34,:3,:29985",,,,,,,,,,,,,,,,
smi:insight.mqs/mqs2020cdyu,4.5024,,135.6234,,,,,manual,reviewed,2020-01-31T15:00:11.000000Z,,1.8,,MW,,,,XB,ELYSE,BH,02,100,2020-01-31T15:28:16.149073Z,2020-01-31T15:35:23.789637Z,19912,2020-01-31T15:18:48.175932Z,0,2020-01-31T15:34:29.912148Z,18834.0,11359,2020-01-31T15:34:32.507263Z,18886,2020-01-31T15:40:57.110346Z,26578,2020-01-31T15:23:55.650114Z,6149,2020-01-31T15:32:50.884498Z,16854,2020-01-31T15:28:54.562800Z,12127.0,2020-01-31T15:46:00.564904Z,32647,2020-01-31T15:29:08.877840Z,12414,"bucket3$35,:3,:32647",,,,,,,,,,,,,,,,
smi:insight.mqs/mqs2020chuz,4.5024,,135.6234,,,,,manual,reviewed,2020-02-02T17:37:27.000000Z,,2.4,,MW,,,,XB,ELYSE,BH,02,100,2020-02-02T17:38:08.892128Z,2020-02-02T17:38:37.124467Z,9535,2020-02-02T17:30:40.327439Z,0,,,8971,2020-02-02T17:45:13.851242Z,17470,2020-02-02T17:50:59.738537Z,24388,2020-02-02T17:32:17.374511Z,1940,2020-02-02T17:42:22.254567Z,14038,,,2020-02-02T17:53:54.570527Z,27884,2020-02-02T17:38:31.849451Z,9430,"bucket5$64,:3,:27885",2020-02-02T17:38:15.227176Z,9097.0,2020-02-02T17:44:53.618039Z,17065.0,,,,,,,,,,,,
smi:insight.mqs/mqs2020clpo,4.5024,,135.6234,,,,,manual,reviewed,2020-02-04T19:25:43.000000Z,,1.8,,MW,,,,XB,ELYSE,BH,02,100,2020-02-04T19:29:47.495710Z,2020-02-04T19:36:17.826304Z,12207,2020-02-04T19:26:07.446362Z,0,2020-02-04T19:34:56.336899Z,10577.0,4400,2020-02-04T19:34:02.392114Z,9498,2020-02-04T19:44:27.097565Z,21992,2020-02-04T19:29:14.037914Z,3731,2020-02-04T19:32:40.922090Z,7869,2020-02-04T19:30:00.364092Z,4657.0,2020-02-04T19:46:02.919132Z,23909,2020-02-04T19:29:49.740880Z,4445,"bucket5$65,:3,:23910",,,,,,,,,,,,,,,,
smi:insight.mqs/mqs2020clrt,4.5024,,135.6234,,,,,manual,reviewed,2020-02-04T20:32:05.000000Z,,1.6,,MW,,,,XB,ELYSE,BH,02,100,2020-02-04T20:40:56.062167Z,2020-02-04T20:47:02.397986Z,15021,2020-02-04T20:34:31.254149Z,0,2020-02-04T20:45:32.891461Z,13231.0,7695,2020-02-04T20:45:49.085134Z,13555,2020-02-04T20:53:44.780071Z,23069,2020-02-04T20:38:58.760095Z,5349,2020-02-04T20:45:18.907843Z,12952,2020-02-04T20:41:28.220893Z,8338.0,2020-02-04T20:55:32.966684Z,25233,2020-02-04T20:41:04.006048Z,7854,"bucket5$66,:3,:25234",,,,,,,,,,,,,,,,
smi:insight.mqs/mqs2020cnhd,4.5024,,135.6234,,,,,manual,reviewed,2020-02-05T17:26:12.000000Z,,2.2,,MW,,,,XB,ELYSE,BH,02,100,2020-02-05T17:30:01.186076Z,2020-02-05T17:31:38.711590Z,7055,2020-02-05T17:25:45.947311Z,0,,,5104,2020-02-05T17:35:29.850382Z,11678,2020-02-05T17:46:26.272748Z,24806,2020-02-05T17:27:45.332277Z,2387,2020-02-05T17:34:36.956407Z,10620,,,2020-02-05T17:47:05.855133Z,25598,2020-02-05T17:30:11.817994Z,5317,"bucket5$67,:3,:25599",2020-02-05T17:30:02.906446Z,5139.0,2020-02-05T17:35:40.844443Z,11897.0,,,,,,,,,,,,
smi:insight.mqs/mqs2020ctfc,4.5024,,135.6234,,,,,manual,reviewed,2020-02-08T23:13:40.000000Z,,1.6,,MW,,,,XB,ELYSE,BH,02,100,2020-02-08T23:18:48.675961Z,2020-02-08T23:24:56.813394Z,13238,2020-02-08T23:13:54.884193Z,0,2020-02-08T23:22:59.523680Z,10892.0,5875,2020-02-08T23:23:03.734517Z,10976,2020-02-08T23:32:41.306130Z,22528,2020-02-08T23:18:20.922724Z,5320,2020-02-08T23:22:49.122552Z,10684,2020-02-08T23:18:53.385759Z,5969.0,2020-02-08T23:33:07.717826Z,23056,2020-02-08T23:19:00.714472Z,6116,"bucket1$49,:3,:23057",,,,,,,,,,,,,,,,
smi:insight.mqs/mqs2020ctic,4.5024,,135.6234,,,,,manual,reviewed,2020-02-09T00:44:14.000000Z,,2.0,,MW,,,,XB,ELYSE,BH,02,100,2020-02-09T00:48:10.121561Z,2020-02-09T00:54:31.911608Z,15259,2020-02-09T00:41:48.881169Z,0,2020-02-09T00:52:57.623676Z,13373.0,7623,2020-02-09T00:54:23.712344Z,15095,2020-02-09T01:01:29.208798Z,23605,2020-02-09T00:44:27.181677Z,3165,2020-02-09T00:51:43.961896Z,11900,2020-02-09T00:48:40.926120Z,8239.0,2020-02-09T01:01:36.134986Z,23744,2020-02-09T00:48:44.526559Z,8311,"bucket5$68,:3,:23745",,,,,,,,,,,,,,,,
smi:insight.mqs/mqs2020cwqy,4.5024,,135.6234,,,,,manual,reviewed,2020-02-10T20:37:03.000000Z,,2.1,,MW,,,,XB,ELYSE,BH,02,100,2020-02-10T20:41:32.620050Z,2020-02-10T20:47:31.039394Z,12262,2020-02-10T20:37:17.920832Z,0,2020-02-10T20:45:55.812781Z,10357.0,5093,2020-02-10T20:46:11.920452Z,10679,2020-02-10T20:55:10.832341Z,21457,2020-02-10T20:40:52.329498Z,4287,2020-02-10T20:45:25.847674Z,9758,2020-02-10T20:41:34.778980Z,5136.0,2020-02-10T20:55:33.926031Z,21919,2020-02-10T20:41:52.237521Z,5486,"bucket1$50,:3,:21920",,,,,,,,,,,,,,,,
smi:insight.mqs/mqs2020cwwx,4.5024,,135.6234,,,,,manual,reviewed,2020-02-10T23:38:02.000000Z,,1.7,,MW,,,,XB,ELYSE,BH,02,100,2020-02-10T23:42:49.931627Z,2020-02-10T23:49:27.516040Z,16187,2020-02-10T23:35:58.120736Z,0,2020-02-10T23:47:50.757331Z,14252.0,8236,2020-02-10T23:48:44.108827Z,15319,2020-02-10T23:55:01.978231Z,22877,2020-02-10T23:39:48.882652Z,4615,2020-02-10T23:47:23.175872Z,13701,2020-02-10T23:42:56.751129Z,8372.0,2020-02-10T23:56:48.087701Z,24999,2020-02-10T23:43:11.627499Z,8670,"bucket5$69,:3,:25000",,,,,,,,,,,,,,,,
smi:insight.mqs/mqs2020cwyu,4.5024,,135.6234,,,,,manual,reviewed,2020-02-11T00:34:56.000000Z,,1.7,,MW,,,,XB,ELYSE,BH,02,100,2020-02-11T00:41:28.299720Z,2020-02-11T00:46:52.435911Z,11983,2020-02-11T00:36:53.249477Z,0,2020-02-11T00:45:04.797629Z,9830.0,5500,2020-02-11T00:45:25.129305Z,10237,2020-02-11T00:51:51.431137Z,17963,2020-02-11T00:40:10.586327Z,3946,2020-02-11T00:44:01.410641Z,8562,2020-02-11T00:41:31.913028Z,5572.0,2020-02-11T00:57:25.248533Z,24639,2020-02-11T00:41:49.852742Z,5931,"bucket5$70,:3,:24640",,,,,,,,,,,,,,,,
smi:insight.mqs/mqs2020cxcp,4.5024,,135.6234,,,,,manual,reviewed,2020-02-11T02:31:00.000000Z,,1.8,,MW,,,,XB,ELYSE,BH,02,100,2020-02-11T02:36:32.890190Z,2020-02-11T02:41:33.765272Z,11176,2020-02-11T02:32:14.909287Z,0,2020-02-11T02:41:30.565714Z,11112.0,5158,2020-02-11T02:42:08.960400Z,11880,2020-02-11T02:46:36.656683Z,17233,2020-02-11T02:34:44.221954Z,2985,2020-02-11T02:40:59.636662Z,10493,2020-02-11T02:36:37.272974Z,5246.0,2020-02-11T02:52:10.149890Z,23903,2020-02-11T02:38:54.853932Z,7997,"bucket5$71,:3,:23904",,,,,,,,,,,,,,,,
smi:insight.mqs/mqs2020cymo,4.5024,,135.6234,,,,,manual,reviewed,2020-02-11T20:40:38.000000Z,,1.8,,MW,,,,XB,ELYSE,BH,02,100,2020-02-11T20:46:13.513650Z,2020-02-11T20:52:34.918804Z,13798,2020-02-11T20:41:04.934424Z,0,2020-02-11T20:52:01.998382Z,13140.0,6170,2020-02-11T20:53:22.763914Z,14755,2020-02-11T21:05:44.332348Z,29587,2020-02-11T20:45:52.512348Z,5750,2020-02-11T20:50:32.308611Z,11346,2020-02-11T20:46:54.368881Z,6987.0,2020-02-11T21:06:02.020122Z,29941,2020-02-11T20:46:44.741994Z,6795,"bucket3$36,:3,:29942",,,,,,,,,,,,,,,,
smi:insight.mqs/mqs2020dako,4.5024,,135.6234,,,,,manual,reviewed,2020-02-12T21:55:58.000000Z,,2.0,,MW,,,,XB,ELYSE,BH,02,100,2020-02-12T22:01:24.099025Z,2020-02-12T22:07:10.997088Z,12470,2020-02-12T21:56:47.436127Z,0,2020-02-12T22:06:27.665646Z,11604.0,5532,2020-02-12T22:06:47.430156Z,11999,2020-02-12T22:19:32.599012Z,27302,2020-02-12T22:00:27.669229Z,4404,2020-02-12T22:05:52.371880Z,10898,2020-02-12T22:01:29.786258Z,5646.0,2020-02-12T22:19:42.925272Z,27509,2020-02-12T22:01:49.550767Z,6041,"bucket5$72,:3,:27510",,,,,,,,,,,,,,,,
smi:insight.mqs/mqs2020dcnw,4.5024,,135.6234,,,,,manual,reviewed,2020-02-14T01:52:41.000000Z,,2.0,,MW,,,,XB,ELYSE,BH,02,100,2020-02-14T01:53:13.173606Z,2020-02-14T01:58:47.967371Z,11038,2020-02-14T01:49:35.998257Z,0,2020-02-14T01:57:55.319777Z,9985.0,4342,2020-02-14T01:57:58.374575Z,10046,2020-02-14T02:01:35.711665Z,14393,2020-02-14T01:52:17.801681Z,3235,2020-02-14T01:57:21.973288Z,9318,2020-02-14T01:53:27.580588Z,4631.0,2020-02-14T02:09:57.835288Z,24436,2020-02-14T01:52:39.328009Z,3665,"bucket5$73,:3,:24437",,,,,,,,,,,,,,,,
smi:insight.mqs/mqs2020djtf,4.5024,,135.6234,,,,,manual,reviewed,2020-02-18T00:32:33.000000Z,,1.8,,MW,,,,XB,ELYSE,BH,02,100,2020-02-18T00:29:45.625397Z,2020-02-18T00:36:06.251241Z,17479,2020-02-18T00:21:32.260172Z,0,2020-02-18T00:35:32.721723Z,16808.0,9866,2020-02-18T00:35:46.596789Z,17086,2020-02-18T00:42:05.344928Z,24661,2020-02-18T00:24:53.564466Z,4025,2020-02-18T00:34:35.181428Z,15657,2020-02-18T00:29:48.575200Z,9925.0,2020-02-18T00:42:18.771528Z,24929,2020-02-18T00:30:08.239964Z,10319,"bucket5$74,:3,:24930",,,,,,,,,,,,,,,,
smi:insight.mqs/mqs2020djwc,4.5024,,135.6234,,,,,manual,reviewed,2020-02-18T01:59:18.000000Z,,2.1,,MW,,,,XB,ELYSE,BH,02,100,2020-02-18T02:04:51.213103Z,2020-02-18T02:09:31.140379Z,16933,2020-02-18T01:55:24.448153Z,0,2020-02-18T02:08:46.419789Z,16038.0,11334,2020-02-18T02:08:51.468929Z,16139,2020-02-18T02:15:40.938901Z,24329,2020-02-18T01:59:01.699780Z,4344,2020-02-18T02:08:17.221228Z,15454,2020-02-18T02:04:53.945357Z,11389.0,2020-02-18T02:20:59.974212Z,30709,2020-02-18T02:04:56.301383Z,11436,"bucket3$37,:3,:30710",,,,,,,,,,,,,,,,
smi:insight.mqs/mqs2020doae,4.5024,,135.6234,,,,,manual,reviewed,2020-02-20T08:36:09.000000Z,,2.2,,MW,,,,XB,ELYSE,BH,02,100,2020-02-20T08:39:43.658188Z,2020-02-20T08:45:43.088339Z,21184,2020-02-20T08:28:03.843548Z,0,2020-02-20T08:44:01.888501Z,19160.0,13996,2020-02-20T08:44:13.033399Z,19383,2020-02-20T08:48:54.627835Z,25015,2020-02-20T08:33:09.413831Z,6111,2020-02-20T08:43:13.593940Z,18194,2020-02-20T08:39:47.705696Z,14077.0,2020-02-20T08:50:11.256103Z,26548,2020-02-20T08:39:52.985767Z,14182,"bucket5$75,:3,:26549",,,,,,,,,,,,,,,,
smi:insight.mqs/mqs2020ebal,4.5024,,135.6234,,,,,manual,reviewed,2020-02-27T11:30:00.000000Z,,1.9,,MW,,,,XB,ELYSE,BH,02,100,2020-02-27T11:47:58.611408Z,2020-02-27T11:53:04.185116Z,15578,2020-02-27T11:40:05.228800Z,0,2020-02-27T11:52:37.765403Z,15049.0,9466,2020-02-27T11:52:47.077249Z,15236,2020-02-27T11:58:15.531447Z,21805,2020-02-27T11:44:04.422126Z,4783,2020-02-27T11:50:14.701590Z,12188,2020-02-27T11:48:04.335748Z,9581.0,2020-02-27T12:03:34.367727Z,28181,2020-02-27T11:48:06.028811Z,9615,"bucket5$76,:3,:28182",,,,,,,,,,,,,,,,
smi:insight.mqs/mqs2020egot,4.5024,,135.6234,,,,,manual,reviewed,2020-03-01T12:25:03.000000Z,,2.0,,MW,,,,XB,ELYSE,BH,02,100,2020-03-01T12:31:34.209941Z,2020-03-01T12:38:32.715761Z,8370,2020-03-01T12:50:49.780455Z,23111,2020-03-01T12:37:29.303860Z,7101.0,0,2020-03-01T12:37:44.275756Z,7401,2020-03-01T12:41:26.002402Z,11835,2020-03-01T12:55:54.028509Z,29196,2020-03-01T12:37:08.628385Z,6688,2020-03-01T12:31:54.218575Z,400.0,2020-03-01T12:46:44.408485Z,18203,2020-03-01T12:32:17.032892Z,856,"bucket3$38,:3,:29197",,,,,,,,,,,,,,,,
smi:insight.mqs/mqs2020ezgm,4.5024,,135.6234,,,,,manual,reviewed,2020-03-11T17:48:39.000000Z,,1.6,,MW,,,,XB,ELYSE,BH,02,100,2020-03-11T17:53:40.575718Z,2020-03-11T17:57:48.122580Z,15880,2020-03-11T17:44:34.055906Z,0,2020-03-11T17:57:16.072541Z,15239.0,10929,2020-03-11T17:57:37.844445Z,15674,2020-03-11T18:07:58.343706Z,28084,2020-03-11T17:49:04.649568Z,5410,2020-03-11T17:56:54.300638Z,14803,2020-03-11T17:53:47.684318Z,11071.0,2020-03-11T18:08:24.781018Z,28613,2020-03-11T17:53:55.459998Z,11227,"bucket3$39,:3,:28614",,,,,,,,,,,,,,,,
smi:insight.mqs/mqs2020ezhl,4.5024,,135.6234,,,,,manual,reviewed,2020-03-11T18:18:05.000000Z,,1.9,,MW,,,,XB,ELYSE,BH,02,100,2020-03-11T18:23:15.900445Z,2020-03-11T18:29:25.837050Z,21504,2020-03-11T18:11:30.583734Z,0,2020-03-11T18:26:56.650205Z,18520.0,14105,2020-03-11T18:27:11.827247Z,18824,2020-03-11T18:36:13.961488Z,29667,2020-03-11T18:15:40.346759Z,4994,2020-03-11T18:26:25.384115Z,17895,2020-03-11T18:23:21.482776Z,14217.0,2020-03-11T18:37:19.833567Z,30984,2020-03-11T18:23:34.794922Z,14483,"bucket3$40,:3,:30985",,,,,,,,,,,,,,,,
smi:insight.mqs/mqs2020fbhi,4.5024,,135.6234,,,,,manual,reviewed,2020-03-12T20:30:48.000000Z,,1.8,,MW,,,,XB,ELYSE,BH,02,100,2020-03-12T20:50:36.177444Z,2020-03-12T20:55:37.124383Z,10995,2020-03-12T20:46:27.333671Z,0,2020-03-12T20:54:35.374476Z,9760.0,4976,2020-03-12T20:54:42.403337Z,9900,2020-03-12T21:02:20.966308Z,19071,2020-03-12T20:49:53.134197Z,4115,2020-03-12T20:53:37.774822Z,8608,2020-03-12T20:50:39.099115Z,5034.0,2020-03-12T21:05:56.226853Z,23377,2020-03-12T20:50:45.941537Z,5171,"bucket1$51,:3,:23378",,,,,,,,,,,,,,,,
smi:insight.mqs/mqs2020fpst,4.5024,,135.6234,,,,,manual,reviewed,2020-03-20T18:11:03.000000Z,,1.8,,MW,,,,XB,ELYSE,BH,02,100,2020-03-20T18:12:15.421504Z,2020-03-20T18:16:53.061715Z,13170,2020-03-20T18:05:54.543238Z,0,2020-03-20T18:16:08.960021Z,12288.0,7617,2020-03-20T18:16:23.994689Z,12588,2020-03-20T18:18:30.285904Z,15114,2020-03-20T18:08:15.869121Z,2826,2020-03-20T18:15:35.883750Z,11626,2020-03-20T18:12:27.449239Z,7857.0,2020-03-20T18:26:39.413784Z,24897,2020-03-20T18:12:43.486219Z,8178,"bucket5$77,:3,:24898",,,,,,,,,,,,,,,,
smi:insight.mqs/mqs2020fxvr,4.5024,,135.6234,,,,,manual,reviewed,2020-03-25T04:45:30.000000Z,,1.8,,MW,,,,XB,ELYSE,BH,02,100,2020-03-25T04:46:00.609924Z,2020-03-25T04:51:48.110156Z,11806,2020-03-25T04:41:57.746225Z,0,2020-03-25T04:50:27.143039Z,10186.0,4856,2020-03-25T04:50:28.331246Z,10210,2020-03-25T04:52:20.021720Z,12444,2020-03-25T04:45:09.215608Z,3828,2020-03-25T04:47:53.125004Z,7106,2020-03-25T04:46:05.915248Z,4962.0,2020-03-25T05:03:56.274023Z,26369,2020-03-25T04:46:07.985954Z,5003,"bucket5$78,:3,:26370",,,,,,,,,,,,,,,,
smi:insight.mqs/mqs2020gevn,4.5024,,135.6234,,,,,manual,reviewed,2020-03-29T00:37:59.000000Z,,2.0,,MW,,,,XB,ELYSE,BH,02,100,2020-03-29T00:41:19.772196Z,2020-03-29T00:43:48.994622Z,9373,2020-03-29T00:36:00.252230Z,0,2020-03-29T00:43:49.638835Z,9386.0,6389,2020-03-29T00:43:59.716077Z,9588,2020-03-29T00:45:58.890427Z,11971,2020-03-29T00:39:26.539595Z,4124,2020-03-29T00:43:38.247169Z,9159,2020-03-29T00:41:19.365993Z,6381.0,2020-03-29T00:56:03.626653Z,24066,2020-03-29T00:41:24.176025Z,6477,"bucket5$79,:3,:24067",,,,,,,,,,,,,,,,
smi:insight.mqs/mqs2020gimu,4.5024,,135.6234,,,,,manual,reviewed,2020-03-31T00:45:29.000000Z,,1.9,,MW,,,,XB,ELYSE,BH,02,100,2020-03-31T00:48:47.674521Z,2020-03-31T00:54:30.910187Z,17161,2020-03-31T00:40:12.830134Z,0,2020-03-31T00:53:37.714920Z,16097.0,10296,2020-03-31T00:53:41.806864Z,16179,2020-03-31T01:03:16.724935Z,27677,2020-03-31T00:43:40.527578Z,4153,2020-03-31T00:53:19.301174Z,15729,2020-03-31T00:48:54.688824Z,10437.0,2020-03-31T01:03:30.729323Z,27957,2020-03-31T00:49:00.144749Z,10546,"bucket5$80,:3,:27958",,,,,,,,,,,,,,,,
smi:insight.mqs/mqs2020hgxu,4.5024,,135.6234,,,,,manual,reviewed,2020-04-13T09:35:08.000000Z,,2.6,,MW,,,,XB,ELYSE,BH,02,100,2020-04-13T09:36:46.374094Z,2020-04-13T09:40:32.678419Z,8256,2020-04-13T09:33:39.851890Z,0,2020-04-13T09:40:09.869034Z,7800.0,3730,2020-04-13T09:40:16.836486Z,7939,2020-04-13T09:42:26.605279Z,10534,2020-04-13T09:35:03.940679Z,1681,2020-04-13T09:40:00.288788Z,7608,2020-04-13T09:37:01.747831Z,4037.0,2020-04-13T09:52:55.303063Z,23108,2020-04-13T09:37:13.940872Z,4281,"bucket1$52,:3,:23109",,,,,,,,,,,,,,,,
smi:insight.mqs/mqs2020holr,4.5024,,135.6234,,,,,manual,reviewed,2020-04-17T12:33:26.000000Z,,1.7,,MW,,,,XB,ELYSE,BH,02,100,2020-04-17T12:34:33.739114Z,2020-04-17T12:40:27.502256Z,16765,2020-04-17T12:26:29.190161Z,0,2020-04-17T12:40:04.982629Z,16315.0,9690,2020-04-17T12:41:05.677509Z,17529,2020-04-17T12:49:46.939419Z,27954,2020-04-17T12:29:19.983995Z,3415,2020-04-17T12:39:50.701480Z,16029,2020-04-17T12:35:30.070525Z,10817.0,2020-04-17T12:50:08.292056Z,28381,2020-04-17T12:36:00.417965Z,11424,"bucket5$81,:3,:28382",,,,,,,,,,,,,,,,
