source_id,latitude,latitude_errors,longitude,longitude_errors,depth,depth_errors,depth_type,origin_evaluation_mode,origievaluation_status,time,region,mag,mag_errors,magnitude_type,creation_info,evaluation_mode,evaluation_status,station_network_code,station_code,trace_channel,station_location_code,trace_sampling_rate_hz,trace_start_time,trace_Peak_M2.4_time,trace_Peak_M2.4_arrival_sample,trace_noise_start_time,trace_noise_start_arrival_sample,trace_Sg_time,trace_Sg_arrival_sample,trace_start_arrival_sample,trace_S_spectral_start_time,trace_S_spectral_start_arrival_sample,trace_S_spectral_end_time,trace_S_spectral_end_arrival_sample,trace_noise_end_time,trace_noise_end_arrival_sample,trace_P_spectral_end_time,trace_P_spectral_end_arrival_sample,trace_Pg_time,trace_Pg_arrival_sample,trace_end_time,trace_end_arrival_sample,trace_P_spectral_start_time,trace_P_spectral_start_arrival_sample,trace_name,trace_y1_time,trace_y1_arrival_sample,trace_y2_time,trace_y2_arrival_sample,trace_Peak_MbS_time,trace_Peak_MbS_arrival_sample,trace_Peak_MbP_time,trace_Peak_MbP_arrival_sample,trace_x1_time,trace_x1_arrival_sample,trace_y3_time,trace_y3_arrival_sample,trace_x3_time,trace_x3_arrival_sample,trace_x2_time,trace_x2_arrival_sample
smi:insight.mqs/mqs2019qmjs,4.5024,,135.6234,,,,,manual,preliminary,2019-08-23T11:07:18.000000Z,,1.6,,MW,,,,XB,ELYSE,BH,02,100,2019-08-23T11:09:44.883059Z,2019-08-23T11:11:28.356480Z,4818,2019-08-23T11:07:27.376558Z,0,2019-08-23T11:11:03.549154Z,4322.0,2749,2019-08-23T11:11:03.438807Z,4320,2019-08-23T11:12:58.723195Z,6626,2019-08-23T11:09:39.028336Z,2632,2019-08-23T11:10:58.733322Z,4226,2019-08-23T11:09:53.797054Z,2927.0,2019-08-23T11:19:50.158628Z,14854,2019-08-23T11:09:52.856529Z,2908,"bucket10$2,:3,:14855",,,,,,,,,,,,,,,,
smi:insight.mqs/mqs2019qnxe,4.5024,,135.6234,,,,,manual,preliminary,2019-08-24T07:02:53.000000Z,,1.7,,MW,,,,XB,ELYSE,BH,02,100,2019-08-24T07:05:23.142437Z,2019-08-24T07:11:14.234865Z,12399,2019-08-24T07:00:54.263002Z,0,2019-08-24T07:10:04.624797Z,11007.0,5377,2019-08-24T07:10:34.153693Z,11597,2019-08-24T07:18:58.395008Z,21682,2019-08-24T07:04:38.942727Z,4493,2019-08-24T07:08:56.937676Z,9653,2019-08-24T07:05:24.689043Z,5408.0,2019-08-24T07:19:22.949698Z,22173,2019-08-24T07:06:17.759804Z,6469,"bucket1$21,:3,:22174",,,,,,,,,,,,,,,,
smi:insight.mqs/mqs2019qprd,4.5024,,135.6234,,,,,manual,preliminary,2019-08-25T06:16:22.000000Z,,1.7,,MW,,,,XB,ELYSE,BH,02,100,2019-08-25T06:20:06.929163Z,2019-08-25T06:25:57.663699Z,14846,2019-08-25T06:13:35.330987Z,0,2019-08-25T06:24:28.535714Z,13063.0,7831,2019-08-25T06:24:47.261155Z,13438,2019-08-25T06:29:52.465101Z,19542,2019-08-25T06:15:55.100745Z,2795,2019-08-25T06:23:24.434632Z,11781,2019-08-25T06:20:12.323113Z,7939.0,2019-08-25T06:34:48.839907Z,25470,2019-08-25T06:22:34.738718Z,10788,"bucket5$12,:3,:25471",,,,,,,,,,,,,,,,
smi:insight.mqs/mqs2019qpzl,4.5024,,135.6234,,,,,manual,preliminary,2019-08-25T10:27:57.000000Z,,2.3,,MW,,,,XB,ELYSE,BH,02,100,2019-08-25T10:31:36.729273Z,2019-08-25T10:38:16.767470Z,50587,2019-08-25T09:56:07.348368Z,0,,,42586,2019-08-25T10:37:52.978242Z,50111,2019-08-25T10:43:04.727921Z,56346,2019-08-25T10:06:54.112626Z,12934,2019-08-25T10:36:52.489499Z,48901,,,2019-08-25T10:54:18.076760Z,69813,2019-08-25T10:32:22.616643Z,43504,bucket11,2019-08-25T10:31:35.282590Z,42557.0,2019-08-25T10:37:48.385401Z,50019.0,,,,,,,,,,,,
smi:insight.mqs/mqs2019qrns,4.5024,,135.6234,,,,,manual,preliminary,2019-08-26T06:48:36.000000Z,,1.8,,MW,,,,XB,ELYSE,BH,02,100,2019-08-26T06:47:41.975661Z,2019-08-26T06:57:09.556997Z,17035,2019-08-26T06:42:57.778434Z,0,2019-08-26T06:55:42.384230Z,15291.0,5683,2019-08-26T06:56:02.073721Z,15685,2019-08-26T06:57:41.680785Z,17677,2019-08-26T06:47:09.423909Z,5032,2019-08-26T06:55:31.758528Z,15079,2019-08-26T06:51:26.197192Z,10167.0,2019-08-26T07:06:09.322759Z,27830,2019-08-26T06:53:30.497756Z,12653,"bucket5$13,:3,:27831",,,,,,,,,,,,,,,,
smi:insight.mqs/mqs2019qrqb,4.5024,,135.6234,,,,,manual,preliminary,2019-08-26T07:59:24.000000Z,,1.4,,MW,,,,XB,ELYSE,BH,02,100,2019-08-26T08:07:08.090749Z,2019-08-26T08:12:06.314421Z,13303,2019-08-26T08:01:01.123236Z,0,2019-08-26T08:10:48.711271Z,11751.0,7339,2019-08-26T08:11:17.127743Z,12319,2019-08-26T08:17:31.413275Z,19805,2019-08-26T08:06:01.024272Z,5997,2019-08-26T08:08:56.669181Z,9510,2019-08-26T08:07:22.488873Z,7626.0,2019-08-26T08:19:24.543802Z,22068,2019-08-26T08:07:31.419765Z,7805,"bucket1$22,:3,:22069",,,,,,,,,,,,,,,,
smi:insight.mqs/mqs2019qruv,4.5024,,135.6234,,,,,manual,preliminary,2019-08-26T10:23:58.000000Z,,1.6,,MW,,,,XB,ELYSE,BH,02,100,2019-08-26T10:27:42.059996Z,2019-08-26T10:33:22.277364Z,9407,2019-08-26T10:25:31.902205Z,0,2019-08-26T10:32:01.276337Z,7787.0,2602,2019-08-26T10:32:17.424967Z,8110,2019-08-26T10:36:36.189818Z,13285,2019-08-26T10:27:39.247984Z,2546,2019-08-26T10:31:45.079361Z,7463,2019-08-26T10:27:40.979928Z,2581.0,2019-08-26T10:44:55.857700Z,23278,2019-08-26T10:27:51.356270Z,2788,"bucket1$23,:3,:23279",,,,,,,,,,,,,,,,
smi:insight.mqs/mqs2019qtov,4.5024,,135.6234,,,,,manual,reviewed,2019-08-27T09:38:37.000000Z,,1.5,,MW,,,,XB,ELYSE,BH,02,100,2019-08-27T09:40:48.289956Z,2019-08-27T09:45:33.441373Z,10045,2019-08-27T09:37:11.144365Z,0,2019-08-27T09:44:54.027381Z,9257.0,4342,2019-08-27T09:45:01.540882Z,9407,2019-08-27T09:50:59.509010Z,16566,2019-08-27T09:40:10.084165Z,3578,2019-08-27T09:44:38.878151Z,8954,2019-08-27T09:40:51.051051Z,4397.0,2019-08-27T09:53:13.785514Z,19252,2019-08-27T09:41:08.217771Z,4740,"bucket8$13,:3,:19253",,,,,,,,,,,,,,,,
smi:insight.mqs/mqs2019qtrs,4.5024,,135.6234,,,,,manual,reviewed,2019-08-27T11:06:26.000000Z,,1.7,,MW,,,,XB,ELYSE,BH,02,100,2019-08-27T11:12:27.996378Z,2019-08-27T11:19:22.231592Z,11457,2019-08-27T11:09:49.323744Z,0,2019-08-27T11:18:40.621674Z,10625.0,3172,2019-08-27T11:20:32.342547Z,12859,2019-08-27T11:29:25.351399Z,23519,2019-08-27T11:12:11.391103Z,2840,2019-08-27T11:17:32.452059Z,9261,2019-08-27T11:12:42.356708Z,3459.0,2019-08-27T11:31:11.620038Z,25645,2019-08-27T11:13:04.281980Z,3898,"bucket5$14,:3,:25646",,,,,,,,,,,,,,,,
smi:insight.mqs/mqs2019skrr,4.5024,,135.6234,,,,,manual,preliminary,2019-09-19T23:56:34.000000Z,,2.5,,MW,,,,XB,ELYSE,BH,02,100,2019-09-20T00:01:50.697433Z,2019-09-20T00:08:22.268257Z,7830,2019-09-20T00:26:05.642067Z,29098,2019-09-20T00:06:48.642962Z,5958.0,0,2019-09-20T00:07:25.745243Z,6700,2019-09-20T00:15:36.082389Z,16507,2019-09-20T00:32:30.401943Z,36793,2019-09-20T00:06:34.167993Z,5668,2019-09-20T00:02:03.955499Z,264.0,2019-09-20T00:17:52.099352Z,19227,2019-09-20T00:02:33.238647Z,850,"bucket6$4,:3,:36794",,,,,,,,,,,,,,,,
smi:insight.mqs/mqs2019sktf,4.5024,,135.6234,,,,,manual,preliminary,2019-09-20T00:42:29.000000Z,,1.8,,MW,,,,XB,ELYSE,BH,02,100,2019-09-20T00:44:22.914003Z,2019-09-20T00:49:56.960192Z,8855,2019-09-20T00:42:34.156526Z,0,2019-09-20T00:49:14.664816Z,8009.0,2174,2019-09-20T00:49:25.178017Z,8220,2019-09-20T00:51:28.428571Z,10685,2019-09-20T00:44:31.388039Z,2344,2019-09-20T00:47:41.357258Z,6143,2019-09-20T00:44:52.221053Z,2760.0,2019-09-20T00:55:25.985219Z,15436,2019-09-20T00:45:01.743618Z,2951,"bucket10$3,:3,:15437",,,,,,,,,,,,,,,,
smi:insight.mqs/mqs2019smrk,4.5024,,135.6234,,,,,manual,preliminary,2019-09-21T02:02:30.000000Z,,1.7,,MW,,,,XB,ELYSE,BH,02,100,2019-09-21T02:06:14.941945Z,2019-09-21T02:11:54.658508Z,13453,2019-09-21T02:00:41.951708Z,0,2019-09-21T02:10:09.617094Z,11352.0,6658,2019-09-21T02:10:43.885289Z,12037,2019-09-21T02:13:13.375660Z,15027,2019-09-21T02:05:13.182394Z,5423,2019-09-21T02:09:38.167300Z,10723,2019-09-21T02:06:12.181061Z,6603.0,2019-09-21T02:20:56.877366Z,24297,2019-09-21T02:06:33.290320Z,7025,"bucket5$15,:3,:24298",,,,,,,,,,,,,,,,
smi:insight.mqs/mqs2019soov,4.5024,,135.6234,,,,,manual,preliminary,2019-09-22T03:02:02.000000Z,,1.6,,MW,,,,XB,ELYSE,BH,02,100,2019-09-22T03:07:53.722002Z,2019-09-22T03:12:38.499983Z,36799,2019-09-22T02:41:58.537509Z,0,2019-09-22T03:11:54.932007Z,35927.0,31103,2019-09-22T03:12:16.588642Z,36360,2019-09-22T03:18:31.939436Z,43867,2019-09-22T02:49:56.407171Z,9557,2019-09-22T03:11:36.576629Z,35560,2019-09-22T03:08:00.333549Z,31235.0,2019-09-22T03:20:32.113333Z,46271,2019-09-22T03:08:24.137897Z,31711,"bucket0$5,:3,:46272",,,,,,,,,,,,,,,,
smi:insight.mqs/mqs2019soqd,4.5024,,135.6234,,,,,manual,preliminary,2019-09-22T03:42:26.000000Z,,2.0,,MW,,,,XB,ELYSE,BH,02,100,2019-09-22T03:46:12.188177Z,2019-09-22T03:51:11.759554Z,85569,2019-09-22T02:39:53.297927Z,0,2019-09-22T03:50:10.590840Z,84345.0,79577,2019-09-22T03:50:43.077528Z,84995,2019-09-22T03:52:54.271240Z,87619,2019-09-22T02:50:03.569669Z,12205,2019-09-22T03:48:35.601857Z,82446,2019-09-22T03:46:08.449480Z,79503.0,2019-09-22T04:00:24.611145Z,96626,2019-09-22T03:47:09.555779Z,80725,"bucket4$1,:3,:96627",,,,,,,,,,,,,,,,
smi:insight.mqs/mqs2019soty,4.5024,,135.6234,,,,,manual,preliminary,2019-09-22T05:37:58.000000Z,,1.7,,MW,,,,XB,ELYSE,BH,02,100,2019-09-22T05:42:10.494800Z,2019-09-22T05:47:43.250968Z,21392,2019-09-22T05:29:53.599241Z,0,2019-09-22T05:47:18.990111Z,20907.0,14737,2019-09-22T05:47:33.910806Z,21205,2019-09-22T05:54:31.883054Z,29565,2019-09-22T05:34:56.273943Z,6052,2019-09-22T05:44:34.696448Z,17621,2019-09-22T05:42:12.301902Z,14773.0,2019-09-22T05:54:51.608940Z,29959,2019-09-22T05:42:23.350420Z,14994,"bucket3$9,:3,:29960",,,,,,,,,,,,,,,,
smi:insight.mqs/mqs2019sqhp,4.5024,,135.6234,,,,,manual,preliminary,2019-09-23T01:39:46.000000Z,,1.7,,MW,,,,XB,ELYSE,BH,02,100,2019-09-23T01:39:30.033101Z,2019-09-23T01:47:20.222663Z,16063,2019-09-23T01:33:56.991666Z,0,2019-09-23T01:44:26.042192Z,12580.0,6660,2019-09-23T01:44:14.488983Z,12349,2019-09-23T01:46:09.502627Z,14649,2019-09-23T01:37:55.903864Z,4777,2019-09-23T01:43:19.761301Z,11254,2019-09-23T01:39:32.219691Z,6703.0,2019-09-23T01:58:46.995206Z,29799,2019-09-23T01:39:37.686167Z,6813,"bucket3$10,:3,:29800",,,,,,,,,,,,,,,,
smi:insight.mqs/mqs2019sqln,4.5024,,135.6234,,,,,manual,preliminary,2019-09-23T03:39:02.000000Z,,1.7,,MW,,,,XB,ELYSE,BH,02,100,2019-09-23T03:44:42.887549Z,2019-09-23T03:53:47.523796Z,38172,2019-09-23T03:21:58.866823Z,0,2019-09-23T03:51:47.768465Z,35777.0,27279,2019-09-23T03:53:48.803535Z,38197,2019-09-23T03:56:43.487800Z,41691,2019-09-23T03:29:59.879215Z,9619,2019-09-23T03:50:56.038876Z,34742,2019-09-23T03:46:07.924082Z,28980.0,2019-09-23T04:01:48.037075Z,47782,2019-09-23T03:46:11.381999Z,29049,"bucket0$6,:3,:47783",,,,,,,,,,,,,,,,
smi:insight.mqs/mqs2019suid,4.5024,,135.6234,,,,,manual,preliminary,2019-09-25T06:28:01.000000Z,,1.9,,MW,,,,XB,ELYSE,BH,02,100,2019-09-25T06:28:00.524675Z,2019-09-25T06:34:57.580534Z,27848,2019-09-25T06:11:45.127367Z,0,2019-09-25T06:32:41.089327Z,25119.0,19507,2019-09-25T06:32:56.791855Z,25433,2019-09-25T06:38:18.089742Z,31859,2019-09-25T06:16:52.659523Z,6150,2019-09-25T06:32:15.723704Z,24611,2019-09-25T06:28:17.770005Z,19852.0,2019-09-25T06:41:34.975290Z,35796,2019-09-25T06:28:10.522684Z,19707,"bucket6$5,:3,:35797",,,,,,,,,,,,,,,,
smi:insight.mqs/mqs2019swdb,4.5024,,135.6234,,,,,manual,preliminary,2019-09-26T06:11:18.000000Z,,1.7,,MW,,,,XB,ELYSE,BH,02,100,2019-09-26T06:14:02.202495Z,2019-09-26T06:18:45.090093Z,15688,2019-09-26T06:05:40.676378Z,0,2019-09-26T06:18:20.103804Z,15188.0,10030,2019-09-26T06:17:57.044927Z,14727,2019-09-26T06:21:02.654592Z,18439,2019-09-26T06:10:20.917930Z,5604,2019-09-26T06:17:45.197502Z,14490,2019-09-26T06:13:53.216587Z,9850.0,2019-09-26T06:27:30.272370Z,26191,2019-09-26T06:14:04.426540Z,10074,"bucket5$16,:3,:26192",,,,,,,,,,,,,,,,
smi:insight.mqs/mqs2019syqb,4.5024,,135.6234,,,,,manual,preliminary,2019-09-27T15:01:16.000000Z,,1.7,,MW,,,,XB,ELYSE,BH,02,100,2019-09-27T15:02:25.414571Z,2019-09-27T15:08:31.682410Z,13281,2019-09-27T14:57:27.592340Z,0,2019-09-27T15:07:56.824706Z,12584.0,5956,2019-09-27T15:07:44.408725Z,12336,2019-09-27T15:10:40.469350Z,15857,2019-09-27T15:00:00.926558Z,3066,2019-09-27T15:07:10.710224Z,11662,2019-09-27T15:04:09.838978Z,8044.0,2019-09-27T15:16:00.248334Z,22252,2019-09-27T15:04:35.970517Z,8567,"bucket1$24,:3,:22253",,,,,,,,,,,,,,,,
smi:insight.mqs/mqs2019szpo,4.5024,,135.6234,,,,,manual,preliminary,2019-09-28T03:54:28.000000Z,,1.8,,MW,,,,XB,ELYSE,BH,02,100,2019-09-28T03:51:16.636413Z,2019-09-28T03:57:09.854597Z,13414,2019-09-28T03:45:59.108058Z,0,2019-09-28T03:55:49.657173Z,11810.0,6350,2019-09-28T03:55:57.262371Z,11962,2019-09-28T03:57:59.899239Z,14415,2019-09-28T03:49:10.330747Z,3823,2019-09-28T03:55:44.613725Z,11709,2019-09-28T03:51:18.342792Z,6384.0,2019-09-28T04:05:46.890089Z,23755,2019-09-28T03:53:33.177800Z,9080,"bucket5$17,:3,:23756",,,,,,,,,,,,,,,,
smi:insight.mqs/mqs2019szso,4.5024,,135.6234,,,,,manual,preliminary,2019-09-28T05:24:58.000000Z,,1.5,,MW,,,,XB,ELYSE,BH,02,100,2019-09-28T05:26:29.090194Z,2019-09-28T05:31:40.847866Z,11715,2019-09-28T05:21:55.069418Z,0,2019-09-28T05:29:31.189789Z,9122.0,5480,2019-09-28T05:30:03.897151Z,9776,2019-09-28T05:36:50.223221Z,17902,2019-09-28T05:26:08.843710Z,5075,2019-09-28T05:29:06.030280Z,8619,2019-09-28T05:26:04.881816Z,4996.0,2019-09-28T05:38:44.899587Z,20196,2019-09-28T05:26:31.299300Z,5524,"bucket1$25,:3,:20197",,,,,,,,,,,,,,,,
smi:insight.mqs/mqs2019szvf,4.5024,,135.6234,,,,,manual,preliminary,2019-09-28T06:45:47.000000Z,,1.5,,MW,,,,XB,ELYSE,BH,02,100,2019-09-28T06:49:06.648597Z,2019-09-28T06:53:54.476994Z,10019,2019-09-28T06:45:33.490956Z,0,2019-09-28T06:52:39.004625Z,8509.0,4262,2019-09-28T06:52:42.737021Z,8584,2019-09-28T06:58:50.876360Z,15947,2019-09-28T06:48:06.814873Z,3065,2019-09-28T06:51:45.156252Z,7432,2019-09-28T06:49:08.314657Z,4295.0,2019-09-28T07:01:21.481518Z,18959,2019-09-28T06:49:19.788410Z,4525,"bucket8$14,:3,:18960",,,,,,,,,,,,,,,,
smi:insight.mqs/mqs2019tcdk,4.5024,,135.6234,,,,,manual,preliminary,2019-09-29T13:09:49.000000Z,,2.1,,MW,,,,XB,ELYSE,BH,02,100,2019-09-29T13:14:21.912306Z,2019-09-29T13:20:18.498893Z,15972,2019-09-29T13:06:59.830383Z,0,2019-09-29T13:19:05.727358Z,14517.0,8841,2019-09-29T13:19:09.887857Z,14600,2019-09-29T13:21:05.499879Z,16912,2019-09-29T13:10:28.291388Z,4168,2019-09-29T13:18:37.102358Z,13944,2019-09-29T13:14:24.078833Z,8884.0,2019-09-29T13:28:22.524825Z,25653,2019-09-29T13:14:51.054972Z,9423,"bucket5$18,:3,:25654",,,,,,,,,,,,,,,,
smi:insight.mqs/mqs2019tdlq,4.5024,,135.6234,,,,,manual,preliminary,2019-09-30T06:28:12.000000Z,,1.6,,MW,,,,XB,ELYSE,BH,02,100,2019-09-30T06:31:30.681591Z,2019-09-30T06:36:12.329087Z,13969,2019-09-30T06:24:33.839221Z,0,2019-09-30T06:35:29.066124Z,13103.0,8336,2019-09-30T06:35:47.578023Z,13474,2019-09-30T06:42:56.301144Z,22048,2019-09-30T06:27:45.452247Z,3831,2019-09-30T06:35:00.067809Z,12523,2019-09-30T06:31:30.246249Z,8327.0,2019-09-30T06:43:58.644719Z,23295,2019-09-30T06:31:54.551735Z,8813,"bucket1$26,:3,:23296",,,,,,,,,,,,,,,,
smi:insight.mqs/mqs2019tfir,4.5024,,135.6234,,,,,manual,preliminary,2019-10-01T07:14:39.000000Z,,1.5,,MW,,,,XB,ELYSE,BH,02,100,2019-10-01T07:20:00.687926Z,2019-10-01T07:24:06.364057Z,9919,2019-10-01T07:15:50.364012Z,0,2019-10-01T07:23:07.775181Z,8747.0,5005,2019-10-01T07:23:12.095957Z,8833,2019-10-01T07:29:57.735131Z,16946,2019-10-01T07:18:02.136245Z,2634,2019-10-01T07:22:54.140098Z,8474,2019-10-01T07:20:06.778560Z,5127.0,2019-10-01T07:30:48.330939Z,17958,2019-10-01T07:20:12.945456Z,5250,"bucket8$15,:3,:17959",,,,,,,,,,,,,,,,
smi:insight.mqs/mqs2019tfxv,4.5024,,135.6234,,,,,manual,preliminary,2019-10-01T14:53:43.000000Z,,1.9,,MW,,,,XB,ELYSE,BH,02,100,2019-10-01T15:02:09.871588Z,2019-10-01T15:09:18.357999Z,18238,2019-10-01T14:54:06.426100Z,0,2019-10-01T15:07:37.831158Z,16227.0,9668,2019-10-01T15:09:09.393015Z,18058,2019-10-01T15:11:44.907471Z,21169,2019-10-01T14:58:03.314389Z,4737,2019-10-01T15:04:02.613130Z,11923,2019-10-01T15:02:18.552999Z,9842.0,2019-10-01T15:21:05.968485Z,32390,2019-10-01T15:02:35.083136Z,10172,"bucket3$11,:3,:32391",,,,,,,,,,,,,,,,
smi:insight.mqs/mqs2019tjth,4.5024,,135.6234,,,,,manual,preliminary,2019-10-03T17:08:59.000000Z,,2.0,,MW,,,,XB,ELYSE,BH,02,100,2019-10-03T17:14:12.780168Z,2019-10-03T17:20:01.714658Z,12589,2019-10-03T17:09:32.210305Z,0,2019-10-03T17:18:57.172865Z,11298.0,5610,2019-10-03T17:18:58.322719Z,11321,2019-10-03T17:19:24.698360Z,11849,2019-10-03T17:12:47.258873Z,3900,2019-10-03T17:16:13.692093Z,8028,2019-10-03T17:14:20.844677Z,5772.0,2019-10-03T17:36:47.617531Z,32707,2019-10-03T17:14:22.651986Z,5808,"bucket3$12,:3,:32708",,,,,,,,,,,,,,,,
smi:insight.mqs/mqs2019tkvs,4.5024,,135.6234,,,,,manual,preliminary,2019-10-04T07:30:14.000000Z,,1.5,,MW,,,,XB,ELYSE,BH,02,100,2019-10-04T07:42:09.079644Z,2019-10-04T07:45:59.451646Z,11314,2019-10-04T07:36:33.670538Z,0,2019-10-04T07:45:43.284194Z,10991.0,6707,2019-10-04T07:46:10.278663Z,11531,2019-10-04T07:55:05.195391Z,22229,2019-10-04T07:39:37.427283Z,3674,2019-10-04T07:45:04.213251Z,10209,2019-10-04T07:42:12.301102Z,6771.0,2019-10-04T07:56:03.997613Z,23405,2019-10-04T07:42:45.688999Z,7439,"bucket1$27,:3,:23406",,,,,,,,,,,,,,,,
smi:insight.mqs/mqs2019tmtr,4.5024,,135.6234,,,,,manual,preliminary,2019-10-05T08:43:38.115700Z,,1.9,,MW,,,,XB,ELYSE,BH,02,100,2019-10-05T08:48:38.115748Z,2019-10-05T08:54:27.323967Z,15457,2019-10-05T08:41:34.423996Z,0,2019-10-05T08:53:10.347269Z,13918.0,8473,2019-10-05T08:53:14.820657Z,14007,2019-10-05T08:56:58.616040Z,18483,2019-10-05T08:44:51.281046Z,3936,2019-10-05T08:50:34.226748Z,10795,2019-10-05T08:48:41.862004Z,8548.0,2019-10-05T09:04:57.543842Z,28061,2019-10-05T08:48:47.509505Z,8661,"bucket5$19,:3,:28063",,,,,,,,,,,,,,,,
smi:insight.mqs/mqs2019tnbo,4.5024,,135.6234,,,,,manual,preliminary,2019-10-05T12:44:18.000000Z,,2.1,,MW,,,,XB,ELYSE,BH,02,100,2019-10-05T12:47:56.545428Z,2019-10-05T12:54:27.664906Z,18122,2019-10-05T12:39:21.485892Z,0,2019-10-05T12:52:34.120996Z,15852.0,10300,2019-10-05T12:52:58.826619Z,16346,2019-10-05T13:00:13.822054Z,25046,2019-10-05T12:43:53.307630Z,5435,2019-10-05T12:52:12.062404Z,15410,2019-10-05T12:47:58.829768Z,10346.0,2019-10-05T13:01:21.462557Z,26398,2019-10-05T12:48:06.770861Z,10505,"bucket5$20,:3,:26400",,,,,,,,,,,,,,,,
smi:insight.mqs/mqs2019tpid,4.5024,,135.6234,,,,,manual,preliminary,2019-10-06T18:20:23.000000Z,,1.2,,MW,,,,XB,ELYSE,BH,02,100,2019-10-06T18:43:15.967779Z,2019-10-06T18:44:37.584735Z,9246,2019-10-06T18:36:55.251189Z,0,2019-10-06T18:45:00.539420Z,9705.0,7614,2019-10-06T18:45:04.678210Z,9788,2019-10-06T18:46:12.496723Z,11144,2019-10-06T18:38:58.909668Z,2473,2019-10-06T18:44:54.731495Z,9589,2019-10-06T18:43:17.410946Z,7643.0,2019-10-06T18:52:03.953567Z,18174,2019-10-06T18:43:19.785578Z,7690,"bucket8$16,:3,:18175",,,,,,,,,,,,,,,,
smi:insight.mqs/mqs2019tqxb,4.5024,,135.6234,,,,,manual,reviewed,2019-10-07T14:57:41.559200Z,,2.7,,MW,,,,XB,ELYSE,BH,02,100,2019-10-07T15:02:41.559223Z,2019-10-07T15:10:44.688665Z,17189,2019-10-07T14:56:25.211630Z,0,2019-10-07T15:09:21.287903Z,15521.0,7526,2019-10-07T15:09:47.720887Z,16049,2019-10-07T15:12:03.741855Z,18770,2019-10-07T15:02:04.491753Z,6785,2019-10-07T15:07:22.114548Z,13137,2019-10-07T15:03:41.598223Z,8727.0,2019-10-07T15:19:49.190175Z,28079,2019-10-07T15:05:22.084107Z,10737,"bucket5$21,:3,:28080",,,,,,,,,,,,,,,,
smi:insight.mqs/mqs2019tueb,4.5024,,135.6234,,,,,manual,preliminary,2019-10-09T09:57:21.000000Z,,1.8,,MW,,,,XB,ELYSE,BH,02,100,2019-10-09T10:01:15.630905Z,2019-10-09T10:09:10.307680Z,13873,2019-10-09T09:57:36.572010Z,0,2019-10-09T10:05:57.061521Z,10008.0,4380,2019-10-09T10:07:27.198619Z,11811,2019-10-09T10:10:59.954949Z,16066,2019-10-09T10:00:14.845207Z,3164,2019-10-09T10:03:27.736473Z,7022,2019-10-09T10:01:16.175148Z,4391.0,2019-10-09T10:21:30.077346Z,28669,2019-10-09T10:01:31.121078Z,4690,"bucket3$13,:3,:28670",,,,,,,,,,,,,,,,
smi:insight.mqs/mqs2019tupk,4.5024,,135.6234,,,,,manual,preliminary,2019-10-09T15:41:29.000000Z,,2.0,,MW,,,,XB,ELYSE,BH,02,100,2019-10-09T15:46:04.420005Z,2019-10-09T15:52:40.659241Z,12062,2019-10-09T15:42:37.512454Z,0,2019-10-09T15:50:53.671366Z,9923.0,4138,2019-10-09T15:51:30.701666Z,10663,2019-10-09T15:52:58.238166Z,12414,2019-10-09T15:45:45.541662Z,3760,2019-10-09T15:50:33.498869Z,9519,2019-10-09T15:46:05.837844Z,4166.0,2019-10-09T16:02:30.243701Z,23854,2019-10-09T15:48:05.254050Z,6554,"bucket5$22,:3,:23855",,,,,,,,,,,,,,,,
