source_id,latitude,latitude_errors,longitude,longitude_errors,depth,depth_errors,depth_type,origin_evaluation_mode,origievaluation_status,time,region,mag,mag_errors,magnitude_type,creation_info,evaluation_mode,evaluation_status,station_network_code,station_code,trace_channel,station_location_code,trace_sampling_rate_hz,trace_start_time,trace_Peak_M2.4_time,trace_Peak_M2.4_arrival_sample,trace_noise_start_time,trace_noise_start_arrival_sample,trace_Sg_time,trace_Sg_arrival_sample,trace_start_arrival_sample,trace_S_spectral_start_time,trace_S_spectral_start_arrival_sample,trace_S_spectral_end_time,trace_S_spectral_end_arrival_sample,trace_noise_end_time,trace_noise_end_arrival_sample,trace_P_spectral_end_time,trace_P_spectral_end_arrival_sample,trace_Pg_time,trace_Pg_arrival_sample,trace_end_time,trace_end_arrival_sample,trace_P_spectral_start_time,trace_P_spectral_start_arrival_sample,trace_name,trace_y1_time,trace_y1_arrival_sample,trace_y2_time,trace_y2_arrival_sample,trace_Peak_MbS_time,trace_Peak_MbS_arrival_sample,trace_Peak_MbP_time,trace_Peak_MbP_arrival_sample,trace_x1_time,trace_x1_arrival_sample,trace_y3_time,trace_y3_arrival_sample,trace_x3_time,trace_x3_arrival_sample,trace_x2_time,trace_x2_arrival_sample
smi:insight.mqs/mqs2019twkt,4.5024,,135.6234,,,,,manual,preliminary,2019-10-10T15:36:10.000000Z,,1.7,,MW,,,,XB,ELYSE,BH,02,100,2019-10-10T15:37:59.364633Z,2019-10-10T15:43:32.867174Z,11838,2019-10-10T15:33:40.879446Z,0,2019-10-10T15:43:02.398026Z,11229.0,5168,2019-10-10T15:43:22.360572Z,11628,2019-10-10T15:49:37.971623Z,19140,2019-10-10T15:37:40.307283Z,4787,2019-10-10T15:41:50.953127Z,9800,2019-10-10T15:37:55.079894Z,5083.0,2019-10-10T15:50:31.106446Z,20203,2019-10-10T15:38:12.941118Z,5440,"bucket1$28,:3,:20204",,,,,,,,,,,,,,,,
smi:insight.mqs/mqs2019tzwy,4.5024,,135.6234,,,,,manual,preliminary,2019-10-12T13:10:00.000000Z,,2.0,,MW,,,,XB,ELYSE,BH,02,100,2019-10-12T13:11:05.128167Z,2019-10-12T13:17:29.452173Z,7685,2019-10-12T13:34:04.923405Z,27595,2019-10-12T13:16:14.519137Z,6187.0,0,2019-10-12T13:16:48.210866Z,6860,2019-10-12T13:20:41.846128Z,11533,2019-10-12T13:43:31.429644Z,38925,2019-10-12T13:15:19.590595Z,5088,2019-10-12T13:11:29.277315Z,482.0,2019-10-12T13:29:38.689787Z,22270,2019-10-12T13:13:18.744770Z,2671,"bucket6$6,:3,:38926",,,,,,,,,,,,,,,,
smi:insight.mqs/mqs2019uada,4.5024,,135.6234,,,,,manual,preliminary,2019-10-12T16:14:58.000000Z,,1.8,,MW,,,,XB,ELYSE,BH,02,100,2019-10-12T16:18:08.091475Z,2019-10-12T16:25:01.591262Z,11845,2019-10-12T16:15:09.257470Z,0,2019-10-12T16:22:49.356352Z,9201.0,3575,2019-10-12T16:22:08.563925Z,8385,2019-10-12T16:27:49.810440Z,15210,2019-10-12T16:17:36.206342Z,2938,2019-10-12T16:21:41.363115Z,7841,2019-10-12T16:18:09.987235Z,3613.0,2019-10-12T16:33:02.740052Z,21468,2019-10-12T16:18:24.775449Z,3909,"bucket1$29,:3,:21469",,,,,,,,,,,,,,,,
smi:insight.mqs/mqs2019uflx,4.5024,,135.6234,,,,,manual,preliminary,2019-10-15T14:24:12.000000Z,,1.7,,MW,,,,XB,ELYSE,BH,02,100,2019-10-15T14:25:51.632638Z,2019-10-15T14:31:37.107217Z,30420,2019-10-15T14:06:16.083229Z,0,2019-10-15T14:29:28.308286Z,27844.0,23510,2019-10-15T14:30:16.116311Z,28800,2019-10-15T14:35:12.423969Z,34726,2019-10-15T14:10:58.541000Z,5649,2019-10-15T14:29:34.692805Z,27972,2019-10-15T14:25:54.814639Z,23574.0,2019-10-15T14:42:47.123112Z,43820,2019-10-15T14:26:36.847513Z,24415,"bucket0$7,:3,:43821",,,,,,,,,,,,,,,,
smi:insight.mqs/mqs2019ufoh,4.5024,,135.6234,,,,,manual,preliminary,2019-10-15T15:36:28.000000Z,,1.9,,MW,,,,XB,ELYSE,BH,02,100,2019-10-15T15:41:36.753559Z,2019-10-15T15:46:59.417195Z,16028,2019-10-15T15:33:37.933320Z,0,2019-10-15T15:46:08.774360Z,15015.0,9575,2019-10-15T15:46:27.761567Z,15395,2019-10-15T15:51:38.807095Z,21616,2019-10-15T15:37:28.594232Z,4612,2019-10-15T15:45:39.355407Z,14427,2019-10-15T15:41:52.661208Z,9893.0,2019-10-15T15:58:03.766770Z,29315,2019-10-15T15:41:59.370973Z,10027,"bucket3$14,:3,:29316",,,,,,,,,,,,,,,,
smi:insight.mqs/mqs2019uhix,4.5024,,135.6234,,,,,manual,preliminary,2019-10-16T15:10:36.000000Z,,2.0,,MW,,,,XB,ELYSE,BH,02,100,2019-10-16T15:12:41.388803Z,2019-10-16T15:17:19.376121Z,10543,2019-10-16T15:08:32.181265Z,0,2019-10-16T15:16:56.974777Z,10095.0,4983,2019-10-16T15:17:04.372481Z,10243,2019-10-16T15:18:18.349516Z,11722,2019-10-16T15:10:50.059261Z,2756,2019-10-16T15:15:58.069316Z,8917,2019-10-16T15:12:45.452857Z,5064.0,2019-10-16T15:25:07.925839Z,19914,2019-10-16T15:14:05.265478Z,6661,"bucket1$30,:3,:19915",,,,,,,,,,,,,,,,
smi:insight.mqs/mqs2019uhmy,4.5024,,135.6234,,,,,manual,preliminary,2019-10-16T17:12:54.000000Z,,1.7,,MW,,,,XB,ELYSE,BH,02,100,2019-10-16T17:17:13.607976Z,2019-10-16T17:24:30.265687Z,21508,2019-10-16T17:06:34.805931Z,0,2019-10-16T17:21:28.233828Z,17867.0,12775,2019-10-16T17:21:52.338971Z,18349,2019-10-16T17:23:08.012035Z,19863,2019-10-16T17:11:54.724276Z,6397,2019-10-16T17:19:55.802453Z,16018,2019-10-16T17:17:17.759485Z,12858.0,2019-10-16T17:36:52.507045Z,36353,2019-10-16T17:17:39.086452Z,13284,"bucket6$7,:3,:36354",,,,,,,,,,,,,,,,
smi:insight.mqs/mqs2019unds,4.5024,,135.6234,,,,,manual,preliminary,2019-10-19T19:21:14.000000Z,,1.8,,MW,,,,XB,ELYSE,BH,02,100,2019-10-19T19:25:29.693703Z,2019-10-19T19:31:38.447918Z,12495,2019-10-19T19:21:13.654529Z,0,2019-10-19T19:30:35.431962Z,11235.0,5120,2019-10-19T19:30:35.492538Z,11236,2019-10-19T19:37:46.187006Z,19850,2019-10-19T19:23:01.611037Z,2158,2019-10-19T19:30:03.966001Z,10605,2019-10-19T19:25:41.931412Z,5365.0,2019-10-19T19:42:19.033418Z,25307,2019-10-19T19:25:42.151445Z,5369,"bucket5$23,:3,:25308",,,,,,,,,,,,,,,,
smi:insight.mqs/mqs2019untq,4.5024,,135.6234,,,,,manual,preliminary,2019-10-20T03:24:42.000000Z,,1.9,,MW,,,,XB,ELYSE,BH,02,100,2019-10-20T03:25:48.491702Z,2019-10-20T03:31:15.380342Z,11633,2019-10-20T03:21:33.684789Z,0,2019-10-20T03:30:17.488065Z,10475.0,5095,2019-10-20T03:30:44.795743Z,11021,2019-10-20T03:34:11.241789Z,15150,2019-10-20T03:23:32.410171Z,2373,2019-10-20T03:27:52.154190Z,7568,2019-10-20T03:26:02.980505Z,5385.0,2019-10-20T03:40:46.640162Z,23058,2019-10-20T03:26:40.118947Z,6127,"bucket1$31,:3,:23059",,,,,,,,,,,,,,,,
smi:insight.mqs/mqs2019uovw,4.5024,,135.6234,,,,,manual,preliminary,2019-10-20T17:40:35.000000Z,,2.3,,MW,,,,XB,ELYSE,BH,02,100,2019-10-20T17:43:48.513634Z,2019-10-20T17:49:23.812339Z,13352,2019-10-20T17:38:16.152057Z,0,2019-10-20T17:48:40.865187Z,12493.0,6646,2019-10-20T17:49:53.930888Z,13955,2019-10-20T17:52:28.908694Z,17054,2019-10-20T17:42:11.517316Z,4706,2019-10-20T17:47:32.236894Z,11121,2019-10-20T17:44:02.688255Z,6930.0,2019-10-20T17:59:01.539990Z,24907,2019-10-20T17:44:17.407652Z,7224,"bucket5$24,:3,:24908",,,,,,,,,,,,,,,,
smi:insight.mqs/mqs2019upsb,4.5024,,135.6234,,,,,manual,preliminary,2019-10-21T04:53:12.000000Z,,2.2,,MW,,,,XB,ELYSE,BH,02,100,2019-10-21T04:54:17.648875Z,2019-10-21T05:01:30.851839Z,15315,2019-10-21T04:48:45.041297Z,0,2019-10-21T05:00:19.957186Z,13897.0,6651,2019-10-21T05:00:21.411216Z,13926,2019-10-21T05:03:57.065151Z,18239,2019-10-21T04:51:33.740255Z,3373,2019-10-21T04:57:34.611095Z,10590,2019-10-21T04:54:24.265541Z,6783.0,2019-10-21T05:07:50.931437Z,22916,2019-10-21T04:55:45.397398Z,8406,"bucket1$32,:3,:22917",,,,,,,,,,,,,,,,
smi:insight.mqs/mqs2019usqs,4.5024,,135.6234,,,,,manual,preliminary,2019-10-22T19:35:59.000000Z,,1.6,,MW,,,,XB,ELYSE,BH,02,100,2019-10-22T19:41:52.126578Z,2019-10-22T19:47:08.065870Z,15688,2019-10-22T19:34:03.606800Z,0,2019-10-22T19:46:11.045403Z,14547.0,9369,2019-10-22T19:46:10.859548Z,14544,2019-10-22T19:47:53.468748Z,16596,2019-10-22T19:36:22.753651Z,2782,2019-10-22T19:42:54.733101Z,10621,2019-10-22T19:41:59.171988Z,9510.0,2019-10-22T19:54:41.837643Z,24763,2019-10-22T19:42:05.376777Z,9634,"bucket5$25,:3,:24764",,,,,,,,,,,,,,,,
smi:insight.mqs/mqs2019utdl,4.5024,,135.6234,,,,,manual,preliminary,2019-10-23T02:02:10.000000Z,,2.0,,MW,,,,XB,ELYSE,BH,02,100,2019-10-23T02:09:02.653387Z,2019-10-23T02:15:03.303077Z,11388,2019-10-23T02:05:33.860583Z,0,2019-10-23T02:14:31.646755Z,10755.0,4175,2019-10-23T02:14:45.122882Z,11024,2019-10-23T02:17:36.892857Z,14460,2019-10-23T02:07:59.382840Z,2909,2019-10-23T02:12:23.608543Z,8194,2019-10-23T02:09:35.870424Z,4839.0,2019-10-23T02:22:18.280510Z,20087,2019-10-23T02:09:39.808573Z,4918,"bucket1$33,:3,:20088",,,,,,,,,,,,,,,,
smi:insight.mqs/mqs2019uwkt,4.5024,,135.6234,,,,,manual,preliminary,2019-10-24T21:08:41.000000Z,,1.7,,MW,,,,XB,ELYSE,BH,02,100,2019-10-24T21:14:01.130800Z,2019-10-24T21:19:13.037993Z,8942,2019-10-24T21:11:45.894999Z,0,2019-10-24T21:18:14.118129Z,7764.0,2704,2019-10-24T21:18:14.945155Z,7780,2019-10-24T21:24:27.978520Z,15241,2019-10-24T21:13:47.643450Z,2434,2019-10-24T21:17:23.429321Z,6750,2019-10-24T21:14:03.077876Z,2743.0,2019-10-24T21:30:35.775246Z,22597,2019-10-24T21:14:24.643256Z,3174,"bucket1$34,:3,:22598",,,,,,,,,,,,,,,,
smi:insight.mqs/mqs2019uwqm,4.5024,,135.6234,,,,,manual,preliminary,2019-10-25T00:02:38.000000Z,,1.7,,MW,,,,XB,ELYSE,BH,02,100,2019-10-25T00:07:04.681904Z,2019-10-25T00:14:12.884304Z,13808,2019-10-25T00:02:42.455391Z,0,2019-10-25T00:11:59.020222Z,11130.0,5244,2019-10-25T00:12:01.287866Z,11176,2019-10-25T00:19:47.445574Z,20499,2019-10-25T00:05:39.398787Z,3538,2019-10-25T00:10:21.821587Z,9186,2019-10-25T00:07:04.479040Z,5240.0,2019-10-25T00:20:02.501526Z,20800,2019-10-25T00:07:06.764338Z,5285,"bucket1$35,:3,:20801",,,,,,,,,,,,,,,,
smi:insight.mqs/mqs2019uwse,4.5024,,135.6234,,,,,manual,preliminary,2019-10-25T00:53:41.000000Z,,1.6,,MW,,,,XB,ELYSE,BH,02,100,2019-10-25T00:58:07.350059Z,2019-10-25T01:03:18.422229Z,17628,2019-10-25T00:48:37.015411Z,0,2019-10-25T01:02:29.504517Z,16649.0,11406,2019-10-25T01:02:29.899823Z,16657,2019-10-25T01:07:07.913077Z,22217,2019-10-25T00:54:49.978648Z,7459,2019-10-25T01:01:23.989592Z,15339,2019-10-25T00:58:27.574514Z,11811.0,2019-10-25T01:13:38.216635Z,30023,2019-10-25T00:58:28.379458Z,11827,"bucket3$15,:3,:30024",,,,,,,,,,,,,,,,
smi:insight.mqs/mqs2019uygn,4.5024,,135.6234,,,,,manual,preliminary,2019-10-25T21:16:19.000000Z,,1.5,,MW,,,,XB,ELYSE,BH,02,100,2019-10-25T21:18:26.379846Z,2019-10-25T21:23:49.541423Z,26036,2019-10-25T21:02:07.725530Z,0,2019-10-25T21:22:34.945019Z,24544.0,19573,2019-10-25T21:22:36.378273Z,24573,2019-10-25T21:28:44.007792Z,31925,2019-10-25T21:04:37.968353Z,3004,2019-10-25T21:20:53.184021Z,22509,2019-10-25T21:19:05.517241Z,20355.0,2019-10-25T21:32:24.854105Z,36342,2019-10-25T21:19:06.406637Z,20373,"bucket6$8,:3,:36343",,,,,,,,,,,,,,,,
smi:insight.mqs/mqs2019uyvc,4.5024,,135.6234,,,,,manual,preliminary,2019-10-26T04:38:25.000000Z,,2.3,,MW,,,,XB,ELYSE,BH,02,100,2019-10-26T04:41:24.693640Z,2019-10-26T04:48:29.365075Z,11678,2019-10-26T04:38:45.411232Z,0,2019-10-26T04:46:06.906561Z,8829.0,3185,2019-10-26T04:46:09.084113Z,8873,2019-10-26T04:49:07.406117Z,12439,2019-10-26T04:40:57.133105Z,2634,2019-10-26T04:44:18.028949Z,6652,2019-10-26T04:41:26.728173Z,3226.0,2019-10-26T04:57:48.098481Z,22853,2019-10-26T04:41:28.179874Z,3255,"bucket1$36,:3,:22854",,,,,,,,,,,,,,,,
smi:insight.mqs/mqs2019vajy,4.5024,,135.6234,,,,,manual,preliminary,2019-10-27T01:16:25.000000Z,,1.6,,MW,,,,XB,ELYSE,BH,02,100,2019-10-27T01:26:23.581594Z,2019-10-27T01:32:01.150878Z,10922,2019-10-27T01:22:54.981461Z,0,2019-10-27T01:30:35.750307Z,9214.0,4171,2019-10-27T01:30:42.143095Z,9342,2019-10-27T01:38:00.505692Z,18109,2019-10-27T01:26:01.852413Z,3736,2019-10-27T01:30:16.571944Z,8830,2019-10-27T01:26:30.084602Z,4301.0,2019-10-27T01:38:14.125794Z,18382,2019-10-27T01:26:26.431581Z,4228,"bucket8$17,:3,:18383",,,,,,,,,,,,,,,,
smi:insight.mqs/mqs2019vali,4.5024,,135.6234,,,,,manual,preliminary,2019-10-27T01:58:28.000000Z,,1.6,,MW,,,,XB,ELYSE,BH,02,100,2019-10-27T02:02:20.841141Z,2019-10-27T02:07:10.431436Z,11342,2019-10-27T01:57:43.314771Z,0,2019-10-27T02:07:08.173751Z,11297.0,5550,2019-10-27T02:07:17.364770Z,11480,2019-10-27T02:14:31.385096Z,20161,2019-10-27T02:01:25.335867Z,4440,2019-10-27T02:06:32.430901Z,10582,2019-10-27T02:02:19.167275Z,5516.0,2019-10-27T02:16:10.953353Z,22152,2019-10-27T02:03:02.058696Z,6374,"bucket1$37,:3,:22153",,,,,,,,,,,,,,,,
smi:insight.mqs/mqs2019vapb,4.5024,,135.6234,,,,,manual,preliminary,2019-10-27T03:52:00.000000Z,,1.9,,MW,,,,XB,ELYSE,BH,02,100,2019-10-27T04:00:16.761211Z,2019-10-27T04:06:18.002161Z,12510,2019-10-27T03:55:52.432121Z,0,2019-10-27T04:04:32.638444Z,10403.0,5286,2019-10-27T04:04:56.200702Z,10874,2019-10-27T04:12:33.764534Z,20026,2019-10-27T03:59:28.957013Z,4330,2019-10-27T04:04:08.316115Z,9917,2019-10-27T04:00:17.253980Z,5295.0,2019-10-27T04:15:47.537046Z,23901,2019-10-27T04:00:24.854708Z,5447,"bucket5$26,:3,:23902",,,,,,,,,,,,,,,,
smi:insight.mqs/mqs2019vdxe,4.5024,,135.6234,,,,,manual,preliminary,2019-10-28T23:22:24.000000Z,,1.7,,MW,,,,XB,ELYSE,BH,02,100,2019-10-28T23:29:44.699281Z,2019-10-28T23:35:35.121768Z,14552,2019-10-28T23:23:27.468515Z,0,2019-10-28T23:34:02.668813Z,12703.0,7543,2019-10-28T23:33:36.399395Z,12177,2019-10-28T23:39:57.459915Z,19798,2019-10-28T23:28:39.593463Z,6241,2019-10-28T23:33:13.420872Z,11718,2019-10-28T23:30:15.262941Z,8154.0,2019-10-28T23:42:49.798843Z,23245,2019-10-28T23:29:52.358789Z,7696,"bucket1$38,:3,:23246",,,,,,,,,,,,,,,,
smi:insight.mqs/mqs2019vebi,4.5024,,135.6234,,,,,manual,preliminary,2019-10-29T01:28:20.000000Z,,1.7,,MW,,,,XB,ELYSE,BH,02,100,2019-10-29T01:41:34.272832Z,2019-10-29T01:47:47.855635Z,21684,2019-10-29T01:29:43.635321Z,0,2019-10-29T01:46:29.818338Z,20123.0,14212,2019-10-29T01:46:21.516498Z,19957,2019-10-29T01:52:20.155990Z,27130,2019-10-29T01:37:15.255421Z,9032,2019-10-29T01:45:30.045090Z,18927,2019-10-29T01:41:47.555776Z,14478.0,2019-10-29T01:54:47.928743Z,30085,2019-10-29T01:41:39.253936Z,14312,"bucket3$16,:3,:30086",,,,,,,,,,,,,,,,
smi:insight.mqs/mqs2019vege,4.5024,,135.6234,,,,,manual,reviewed,2019-10-29T03:55:01.000000Z,,1.9,,MW,,,,XB,ELYSE,BH,02,100,2019-10-29T04:03:06.729189Z,2019-10-29T04:07:47.331383Z,15238,2019-10-29T03:55:05.404256Z,0,2019-10-29T04:06:31.558477Z,13722.0,9625,2019-10-29T04:06:27.451926Z,13640,2019-10-29T04:09:11.090369Z,16913,2019-10-29T04:01:37.754406Z,7846,2019-10-29T04:05:35.223051Z,12595,2019-10-29T04:03:12.880677Z,9748.0,2019-10-29T04:15:50.704507Z,24905,2019-10-29T04:03:38.286031Z,10257,"bucket5$27,:3,:24906",,,,,,,,,,,,,,,,
smi:insight.mqs/mqs2019vhyj,4.5024,,135.6234,,,,,manual,preliminary,2019-10-31T04:31:02.000000Z,,1.8,,MW,,,,XB,ELYSE,BH,02,100,2019-10-31T04:40:14.618807Z,2019-10-31T04:46:55.986043Z,13193,2019-10-31T04:35:56.302692Z,0,2019-10-31T04:45:31.068100Z,11494.0,5165,2019-10-31T04:45:26.024015Z,11393,2019-10-31T04:51:57.437749Z,19222,2019-10-31T04:38:38.251524Z,3238,2019-10-31T04:44:57.614954Z,10825,2019-10-31T04:40:51.295344Z,5899.0,2019-10-31T04:57:30.455079Z,25882,2019-10-31T04:40:36.108052Z,5595,"bucket5$28,:3,:25883",,,,,,,,,,,,,,,,
smi:insight.mqs/mqs2019vkbu,4.5024,,135.6234,,,,,manual,preliminary,2019-11-01T08:31:01.000000Z,,2.2,,MW,,,,XB,ELYSE,BH,02,100,2019-11-01T08:40:10.644513Z,2019-11-01T08:45:49.148097Z,13724,2019-11-01T08:34:22.941924Z,0,2019-11-01T08:44:36.576135Z,12272.0,6954,2019-11-01T08:44:23.013390Z,12001,2019-11-01T08:47:42.500802Z,15991,2019-11-01T08:36:30.086678Z,2542,2019-11-01T08:43:38.463829Z,11110,2019-11-01T08:40:32.394723Z,7389.0,2019-11-01T08:57:16.271746Z,27466,2019-11-01T08:41:24.594286Z,8433,"bucket5$29,:3,:27467",,,,,,,,,,,,,,,,
smi:insight.mqs/mqs2019vlua,4.5024,,135.6234,,,,,manual,preliminary,2019-11-02T06:52:11.000000Z,,1.9,,MW,,,,XB,ELYSE,BH,02,100,2019-11-02T06:55:39.560251Z,2019-11-02T07:00:48.076841Z,12524,2019-11-02T06:50:21.804779Z,0,2019-11-02T07:00:14.224009Z,11847.0,6354,2019-11-02T07:00:57.460214Z,12712,2019-11-02T07:02:18.732352Z,14338,2019-11-02T06:52:29.800595Z,2559,2019-11-02T06:58:22.799007Z,9619,2019-11-02T06:55:42.741080Z,6418.0,2019-11-02T07:07:53.075997Z,21024,2019-11-02T06:55:46.021733Z,6483,"bucket1$39,:3,:21025",,,,,,,,,,,,,,,,
smi:insight.mqs/mqs2019vnfx,4.5024,,135.6234,,,,,manual,preliminary,2019-11-03T02:02:27.638800Z,,1.7,,MW,,,,XB,ELYSE,BH,02,100,2019-11-03T02:07:27.638879Z,2019-11-03T02:11:46.106033Z,13021,2019-11-03T02:00:55.007766Z,0,2019-11-03T02:11:24.616159Z,12592.0,7852,2019-11-03T02:11:43.760261Z,12975,2019-11-03T02:12:50.070004Z,14301,2019-11-03T02:04:29.917131Z,4298,2019-11-03T02:10:04.295647Z,10985,2019-11-03T02:07:48.465287Z,8269.0,2019-11-03T02:21:48.099440Z,25061,2019-11-03T02:09:30.311903Z,10306,"bucket5$30,:3,:25062",,,,,,,,,,,,,,,,
smi:insight.mqs/mqs2019vpio,4.5024,,135.6234,,,,,manual,preliminary,2019-11-04T05:36:58.000000Z,,1.8,,MW,,,,XB,ELYSE,BH,02,100,2019-11-04T05:45:47.621011Z,2019-11-04T05:52:11.903083Z,15834,2019-11-04T05:39:00.195990Z,0,2019-11-04T05:51:12.921205Z,14654.0,8148,2019-11-04T05:51:29.931862Z,14994,2019-11-04T05:57:23.253784Z,22061,2019-11-04T05:44:50.408135Z,7004,2019-11-04T05:50:48.516838Z,14166,2019-11-04T05:45:58.451496Z,8365.0,2019-11-04T06:00:31.819992Z,25832,2019-11-04T05:46:59.439988Z,9584,"bucket5$31,:3,:25833",,,,,,,,,,,,,,,,
smi:insight.mqs/mqs2019vraw,4.5024,,135.6234,,,,,manual,preliminary,2019-11-05T04:00:35.000000Z,,2.1,,MW,,,,XB,ELYSE,BH,02,100,2019-11-05T04:55:14.976475Z,2019-11-05T05:00:00.896662Z,8994,2019-11-05T04:52:31.146074Z,0,2019-11-05T04:58:49.112577Z,7558.0,3276,2019-11-05T04:58:41.434324Z,7405,2019-11-05T05:00:44.665012Z,9869,2019-11-05T04:54:43.532473Z,2647,2019-11-05T04:58:16.518830Z,6906,2019-11-05T04:55:15.182701Z,3280.0,2019-11-05T05:15:05.384779Z,27084,2019-11-05T04:55:40.965339Z,3795,"bucket5$32,:3,:27085",,,,,,,,,,,,,,,,
smi:insight.mqs/mqs2019vrdo,4.5024,,135.6234,,,,,manual,preliminary,2019-11-05T05:21:36.000000Z,,1.6,,MW,,,,XB,ELYSE,BH,02,100,2019-11-05T05:25:18.236873Z,2019-11-05T05:29:31.934971Z,10214,2019-11-05T05:21:01.200767Z,0,2019-11-05T05:28:28.965229Z,8954.0,5140,2019-11-05T05:29:17.947331Z,9934,2019-11-05T05:32:42.692521Z,14029,2019-11-05T05:24:28.976597Z,4155,2019-11-05T05:28:01.535251Z,8406,2019-11-05T05:25:24.792522Z,5271.0,2019-11-05T05:39:25.194794Z,22079,2019-11-05T05:25:43.405721Z,5643,"bucket1$40,:3,:22080",,,,,,,,,,,,,,,,
smi:insight.mqs/mqs2019vtgg,4.5024,,135.6234,,,,,manual,preliminary,2019-11-06T09:00:10.000000Z,,1.7,,MW,,,,XB,ELYSE,BH,02,100,2019-11-06T09:10:44.763370Z,2019-11-06T09:18:40.473395Z,28302,2019-11-06T08:55:05.300289Z,0,2019-11-06T09:15:48.831929Z,24869.0,18788,2019-11-06T09:16:06.817330Z,25229,2019-11-06T09:18:10.970403Z,27712,2019-11-06T09:00:02.786262Z,5948,2019-11-06T09:15:42.220595Z,24737,2019-11-06T09:10:42.551781Z,18744.0,2019-11-06T09:25:01.442011Z,35922,2019-11-06T09:11:00.368033Z,19100,"bucket6$9,:3,:35923",,,,,,,,,,,,,,,,
smi:insight.mqs/mqs2019vxby,4.5024,,135.6234,,,,,manual,preliminary,2019-11-08T11:22:06.000000Z,,1.8,,MW,,,,XB,ELYSE,BH,02,100,2019-11-08T11:36:45.249527Z,2019-11-08T11:44:39.392287Z,24792,2019-11-08T11:23:59.766035Z,0,2019-11-08T11:42:20.386578Z,22011.0,15309,2019-11-08T11:42:07.057263Z,21745,2019-11-08T11:48:43.128324Z,29666,2019-11-08T11:30:05.370090Z,7311,2019-11-08T11:40:29.943686Z,19803,2019-11-08T11:37:21.429095Z,16032.0,2019-11-08T11:51:15.463347Z,32713,2019-11-08T11:37:11.908156Z,15842,"bucket3$17,:3,:32714",,,,,,,,,,,,,,,,
smi:insight.mqs/mqs2019vxdl,4.5024,,135.6234,,,,,manual,preliminary,2019-11-08T12:07:32.000000Z,,2.0,,MW,,,,XB,ELYSE,BH,02,100,2019-11-08T12:14:23.654624Z,2019-11-08T12:21:33.355631Z,15839,2019-11-08T12:08:21.349273Z,0,2019-11-08T12:20:12.113911Z,14214.0,7245,2019-11-08T12:19:39.806428Z,13568,2019-11-08T12:25:27.111876Z,20514,2019-11-08T12:12:08.655497Z,4545,2019-11-08T12:19:04.037428Z,12853,2019-11-08T12:15:20.192721Z,8376.0,2019-11-08T12:28:47.879810Z,24529,2019-11-08T12:14:55.962108Z,7891,"bucket5$33,:3,:24530",,,,,,,,,,,,,,,,
smi:insight.mqs/mqs2019vypm,4.5024,,135.6234,,,,,manual,preliminary,2019-11-09T07:19:44.000000Z,,2.0,,MW,,,,XB,ELYSE,BH,02,100,2019-11-09T07:24:11.190621Z,2019-11-09T07:29:57.060927Z,14393,2019-11-09T07:17:57.323831Z,0,2019-11-09T07:28:59.697788Z,13246.0,7476,2019-11-09T07:29:01.323505Z,13279,2019-11-09T07:32:56.098981Z,17974,2019-11-09T07:20:58.338582Z,3619,2019-11-09T07:27:01.743466Z,10887,2019-11-09T07:24:11.406061Z,7480.0,2019-11-09T07:40:14.595876Z,26744,2019-11-09T07:24:13.135612Z,7515,"bucket5$34,:3,:26745",,,,,,,,,,,,,,,,
