source_id,latitude,latitude_errors,longitude,longitude_errors,depth,depth_errors,depth_type,origin_evaluation_mode,origievaluation_status,time,region,mag,mag_errors,magnitude_type,creation_info,evaluation_mode,evaluation_status,station_network_code,station_code,trace_channel,station_location_code,trace_sampling_rate_hz,trace_start_time,trace_Peak_M2.4_time,trace_Peak_M2.4_arrival_sample,trace_noise_start_time,trace_noise_start_arrival_sample,trace_Sg_time,trace_Sg_arrival_sample,trace_start_arrival_sample,trace_S_spectral_start_time,trace_S_spectral_start_arrival_sample,trace_S_spectral_end_time,trace_S_spectral_end_arrival_sample,trace_noise_end_time,trace_noise_end_arrival_sample,trace_P_spectral_end_time,trace_P_spectral_end_arrival_sample,trace_Pg_time,trace_Pg_arrival_sample,trace_end_time,trace_end_arrival_sample,trace_P_spectral_start_time,trace_P_spectral_start_arrival_sample,trace_name,trace_y1_time,trace_y1_arrival_sample,trace_y2_time,trace_y2_arrival_sample,trace_Peak_MbS_time,trace_Peak_MbS_arrival_sample,trace_Peak_MbP_time,trace_Peak_MbP_arrival_sample,trace_x1_time,trace_x1_arrival_sample,trace_y3_time,trace_y3_arrival_sample,trace_x3_time,trace_x3_arrival_sample,trace_x2_time,trace_x2_arrival_sample
smi:insight.mqs/mqs2020iaeu,4.5024,,135.6234,,,,,manual,reviewed,2020-04-23T22:42:14.000000Z,,1.9,,MW,,,,XB,ELYSE,BH,02,100,2020-04-23T22:42:35.425902Z,2020-04-23T22:45:59.119553Z,7865,2020-04-23T22:39:25.832500Z,0,2020-04-23T22:45:01.638886Z,6715.0,3791,2020-04-23T22:45:13.574640Z,6954,2020-04-23T22:48:48.418207Z,11251,2020-04-23T22:41:47.341758Z,2829,2020-04-23T22:44:43.735255Z,6357,2020-04-23T22:42:51.837564Z,4119.0,2020-04-23T22:56:27.944727Z,20441,2020-04-23T22:43:12.725133Z,4537,"bucket1$53,:3,:20442",,,,,,,,,,,,,,,,
smi:insight.mqs/mqs2020iswy,4.5024,,135.6234,,,,,manual,reviewed,2020-05-04T04:20:02.000000Z,,1.7,,MW,,,,XB,ELYSE,BH,02,100,2020-05-04T04:21:35.804806Z,2020-05-04T04:28:30.678622Z,14716,2020-05-04T04:16:14.809626Z,0,2020-05-04T04:25:59.752677Z,11698.0,6419,2020-05-04T04:26:09.001524Z,11882,2020-05-04T04:30:51.447089Z,17531,2020-05-04T04:19:53.931592Z,4381,2020-05-04T04:24:47.896248Z,10260,2020-05-04T04:22:07.108596Z,7045.0,2020-05-04T04:33:25.683811Z,20616,2020-05-04T04:22:12.088745Z,7144,"bucket1$54,:3,:20617",,,,,,,,,,,,,,,,
smi:insight.mqs/mqs2020jggm,4.5024,,135.6234,,,,,manual,reviewed,2020-05-11T11:54:31.000000Z,,2.3,,MW,,,,XB,ELYSE,BH,02,100,2020-05-11T12:06:03.942327Z,2020-05-11T12:11:51.794299Z,11278,2020-05-11T12:02:27.867645Z,0,2020-05-11T12:09:18.763762Z,8217.0,4321,2020-05-11T12:09:49.462897Z,8831,2020-05-11T12:15:50.768103Z,16057,2020-05-11T12:04:47.194489Z,2786,2020-05-11T12:08:40.980211Z,7461,2020-05-11T12:06:15.749687Z,4557.0,2020-05-11T12:16:08.612770Z,16414,2020-05-11T12:06:35.822198Z,4958,"bucket10$4,:3,:16415",,,,,,,,,,,,,,,,
smi:insight.mqs/mqs2020kjqf,4.5024,,135.6234,,,,,manual,reviewed,2020-05-27T13:43:03.163200Z,,2.3,,MW,,,,XB,ELYSE,BH,02,100,2020-05-27T13:48:03.163214Z,2020-05-27T13:50:04.329891Z,4743,2020-05-27T13:46:07.137789Z,0,2020-05-27T13:49:12.195256Z,3700.0,2319,2020-05-27T13:49:19.368638Z,3843,2020-05-27T13:50:24.802032Z,5152,2020-05-27T13:47:41.790622Z,1892,2020-05-27T13:48:43.589788Z,3128,2020-05-27T13:48:13.099337Z,2518.0,2020-05-27T14:05:50.442918Z,23665,2020-05-27T13:48:16.513901Z,2586,"bucket1$55,:3,:23666",,,,,,,,,2020-05-27T14:05:06.079990Z,22778.0,,,,,,
smi:insight.mqs/mqs2020klkw,4.5024,,135.6234,,,,,manual,reviewed,2020-05-28T13:20:57.000000Z,,3.0,,MW,,,,XB,ELYSE,BH,02,100,2020-05-28T13:25:16.867540Z,2020-05-28T13:32:32.613474Z,17600,2020-05-28T13:17:52.574211Z,0,2020-05-28T13:32:10.571417Z,17159.0,8885,2020-05-28T13:32:11.782078Z,17183,2020-05-28T13:37:09.604690Z,23140,2020-05-28T13:20:51.716439Z,3582,2020-05-28T13:28:45.969704Z,13067,2020-05-28T13:25:16.525347Z,8878.0,2020-05-28T13:41:06.180856Z,27871,2020-05-28T13:25:29.842618Z,9144,"bucket5$82,:3,:27872",,,,,,,,,,,,,,,,
smi:insight.mqs/mqs2020laao,4.5024,,135.6234,,,,,manual,reviewed,2020-06-05T13:10:31.000000Z,,2.8,,MW,,,,XB,ELYSE,BH,02,100,2020-06-05T13:10:34.722582Z,2020-06-05T13:16:43.873886Z,17311,2020-06-05T13:02:18.255915Z,0,2020-06-05T13:14:35.791831Z,14749.0,9928,2020-06-05T13:15:13.391208Z,15501,2020-06-05T13:16:47.047839Z,17375,2020-06-05T13:06:13.905489Z,4712,2020-06-05T13:14:18.708226Z,14408,2020-06-05T13:10:44.042941Z,10114.0,2020-06-05T13:28:10.705242Z,31048,2020-06-05T13:12:17.736843Z,11988,"bucket3$41,:3,:31049",,,,,,,,,,,,,,,,
smi:insight.mqs/mqs2020tbbs,4.5024,,135.6234,,,,,manual,reviewed,2020-09-27T23:11:01.084600Z,,2.0,,MW,,,,XB,ELYSE,BH,02,100,2020-09-27T23:16:01.084694Z,2020-09-27T23:18:31.805190Z,12485,2020-09-27T23:08:07.491439Z,0,2020-09-27T23:17:19.505719Z,11039.0,9470,2020-09-27T23:17:19.069688Z,11030,2020-09-27T23:21:57.152556Z,16592,2020-09-27T23:13:02.346492Z,5896,2020-09-27T23:16:41.530130Z,10279,2020-09-27T23:16:03.788867Z,9525.0,2020-09-27T23:27:49.578098Z,23640,2020-09-27T23:16:00.577885Z,9460,"bucket1$56,:3,:23641",,,,,,,,,,,,,,,,
smi:insight.mqs/mqs2020tpep,4.5024,,135.6234,,,,,manual,reviewed,2020-10-05T16:32:41.849800Z,,2.1,,MW,,,,XB,ELYSE,BH,02,100,2020-10-05T16:37:41.849859Z,2020-10-05T16:40:12.955878Z,11875,2020-10-05T16:30:19.170817Z,0,2020-10-05T16:39:21.087166Z,10837.0,8853,2020-10-05T16:39:22.125365Z,10858,2020-10-05T16:44:05.087884Z,16517,2020-10-05T16:35:41.421126Z,6444,2020-10-05T16:39:00.173800Z,10419,2020-10-05T16:38:01.955546Z,9255.0,2020-10-05T16:46:51.076615Z,19837,2020-10-05T16:38:02.451109Z,9265,"bucket1$57,:3,:19838",,,,,,,,,,,,,,,,
smi:insight.mqs/mqs2020uksp,4.5024,,135.6234,,,,,manual,reviewed,2020-10-17T11:27:59.100800Z,,2.2,,MW,,,,XB,ELYSE,BL,07,100,2020-10-17T11:32:59.100897Z,2020-10-17T11:40:47.865232Z,28145,2020-10-17T11:17:20.581178Z,0,2020-10-17T11:38:00.083079Z,24789.0,18770,2020-10-17T11:37:45.018660Z,24488,2020-10-17T11:43:48.861817Z,31765,2020-10-17T11:22:22.576126Z,6039,2020-10-17T11:37:01.890699Z,23626,2020-10-17T11:33:59.446405Z,19977.0,2020-10-17T11:46:17.727329Z,34742,2020-10-17T11:33:32.088585Z,19429,"bucket6$19,:3,:34743",,,,,,,,,,,,,,,,
smi:insight.mqs/mqs2020xhlg,4.5024,,135.6234,,,,,manual,reviewed,2020-11-27T08:57:46.300000Z,,2.1,,MW,,,,XB,ELYSE,BH,02,100,2020-11-27T09:02:46.300077Z,2020-11-27T09:04:45.866373Z,11598,2020-11-27T08:55:05.931359Z,0,2020-11-27T09:04:30.157331Z,11284.0,9207,2020-11-27T09:04:30.932385Z,11299,2020-11-27T09:05:49.519235Z,12871,2020-11-27T09:00:00.610488Z,5893,2020-11-27T09:04:09.747572Z,10876,2020-11-27T09:03:06.451485Z,9610.0,2020-11-27T09:09:34.349559Z,17368,2020-11-27T09:03:08.259945Z,9646,"bucket8$22,:3,:17369",,,,,,,,,,,,,,,,
smi:insight.mqs/mqs2020xjnc,4.5024,,135.6234,,,,,manual,reviewed,2020-11-28T12:09:06.382500Z,,2.5,,MW,,,,XB,ELYSE,BH,02,100,2020-11-28T12:14:06.382599Z,2020-11-28T12:18:56.878064Z,13212,2020-11-28T12:07:56.218561Z,0,2020-11-28T12:18:35.729686Z,12789.0,7403,2020-11-28T12:19:03.028562Z,13335,2020-11-28T12:24:06.716674Z,19409,2020-11-28T12:10:26.650778Z,3008,2020-11-28T12:17:29.974105Z,11474,2020-11-28T12:14:26.190038Z,7799.0,2020-11-28T12:28:03.788405Z,24151,2020-11-28T12:14:30.160967Z,7878,"bucket5$83,:3,:24152",,,,,,,,,,,,,,,,
smi:insight.mqs/mqs2020yvsr,4.5024,,135.6234,,,,,manual,reviewed,2020-12-19T10:09:04.548400Z,,2.5,,MW,,,,XB,ELYSE,BH,02,100,2020-12-19T10:14:04.548495Z,2020-12-19T10:16:35.822775Z,9972,2020-12-19T10:08:17.189864Z,0,2020-12-19T10:15:34.426562Z,8744.0,6947,2020-12-19T10:15:40.469119Z,8865,2020-12-19T10:17:32.679948Z,11109,2020-12-19T10:11:50.741507Z,4270,2020-12-19T10:15:27.759924Z,8611,2020-12-19T10:14:04.723797Z,6950.0,2020-12-19T10:23:59.222866Z,18840,2020-12-19T10:14:06.302158Z,6982,"bucket8$23,:3,:18841",,,,,,,,,,,,,,,,
smi:insight.mqs/mqs2021asjg,4.5024,,135.6234,,,,,manual,reviewed,2021-01-11T01:07:17.279500Z,,2.8,,MW,,,,XB,ELYSE,BH,02,100,2021-01-11T01:12:17.279508Z,2021-01-11T01:17:18.242235Z,17067,2021-01-11T01:03:04.858861Z,0,2021-01-11T01:15:44.435629Z,15191.0,11048,2021-01-11T01:16:15.086588Z,15804,2021-01-11T01:18:47.934257Z,18861,2021-01-11T01:06:57.231953Z,4647,2021-01-11T01:15:00.265676Z,14307,2021-01-11T01:12:18.350920Z,11069.0,2021-01-11T01:35:59.836697Z,39499,2021-01-11T01:13:13.757286Z,12177,"bucket6$20,:3,:39500",,,,,,,,,,,,,,,,
smi:insight.mqs/mqs2021axuc,4.5024,,135.6234,,,,,manual,reviewed,2021-01-14T00:16:24.669200Z,,2.1,,MW,,,,XB,ELYSE,BH,02,100,2021-01-14T00:21:24.669242Z,2021-01-14T00:25:15.780424Z,15126,2021-01-14T00:12:39.460518Z,0,2021-01-14T00:24:47.241802Z,14555.0,10503,2021-01-14T00:24:56.689713Z,14744,2021-01-14T00:29:05.188710Z,19714,2021-01-14T00:15:51.740322Z,3845,2021-01-14T00:24:22.994934Z,14070,2021-01-14T00:21:37.107394Z,10752.0,2021-01-14T00:40:43.689173Z,33684,2021-01-14T00:21:44.348681Z,10897,"bucket3$42,:3,:33685",,,,,,,,,,,,,,,,
smi:insight.mqs/mqs2021bisp,4.5024,,135.6234,,,,,manual,reviewed,2021-01-20T00:00:44.299000Z,,1.6,,MW,,,,XB,ELYSE,BH,02,100,2021-01-20T00:05:44.299072Z,2021-01-20T00:08:03.625212Z,13847,2021-01-19T23:56:31.218467Z,0,2021-01-20T00:07:04.928338Z,12673.0,11060,2021-01-20T00:07:09.231807Z,12759,2021-01-20T00:09:30.630992Z,15587,2021-01-20T00:00:31.431096Z,4803,2021-01-20T00:06:43.364215Z,12241,2021-01-20T00:06:04.506602Z,11464.0,2021-01-20T00:13:38.975512Z,20554,2021-01-20T00:06:09.007135Z,11554,"bucket1$58,:3,:20555",,,,,,,,,,,,,,,,
smi:insight.mqs/mqs2021cbqm,4.5024,,135.6234,,,,,manual,preliminary,2021-01-30T08:31:35.967600Z,,1.4,,MW,,,,XB,ELYSE,BH,02,100,2021-01-30T08:36:35.967618Z,2021-01-30T08:38:06.298835Z,7853,2021-01-30T08:31:33.552056Z,0,2021-01-30T08:38:51.835225Z,8764.0,6047,2021-01-30T08:38:57.884252Z,8885,2021-01-30T08:41:43.373213Z,12195,2021-01-30T08:33:33.956048Z,2407,2021-01-30T08:38:30.986598Z,8347,2021-01-30T08:36:45.951601Z,6247.0,2021-01-30T08:48:44.263680Z,20613,2021-01-30T08:36:48.410796Z,6296,"bucket1$59,:3,:20614",,,,,,,,,,,,,,,,
smi:insight.mqs/mqs2021cylr,4.5024,,135.6234,,,,,manual,reviewed,2021-02-11T20:14:21.681400Z,,1.9,,MW,,,,XB,ELYSE,BH,02,100,2021-02-11T20:19:21.681461Z,2021-02-11T20:25:10.459434Z,20211,2021-02-11T20:08:19.844312Z,0,2021-02-11T20:23:54.396410Z,18690.0,13236,2021-02-11T20:24:00.381478Z,18810,2021-02-11T20:27:19.883738Z,22800,2021-02-11T20:12:27.393679Z,4950,2021-02-11T20:23:11.503424Z,17832,2021-02-11T20:19:40.031029Z,13603.0,2021-02-11T20:33:12.168978Z,29845,2021-02-11T20:19:45.018585Z,13702,"bucket3$43,:3,:29846",,,,,,,,,,,,,,,,
smi:insight.mqs/mqs2021djkr,4.5024,,135.6234,,,,,manual,reviewed,2021-02-17T20:12:36.380800Z,,1.3,,MW,,,,XB,ELYSE,BH,02,100,2021-02-17T20:17:36.380863Z,2021-02-17T20:20:13.585707Z,5818,2021-02-17T20:15:22.650526Z,0,2021-02-17T20:19:13.071910Z,4608.0,2674,2021-02-17T20:19:24.806402Z,4843,2021-02-17T20:21:18.878001Z,7124,2021-02-17T20:17:05.411359Z,2055,2021-02-17T20:19:02.197122Z,4390,2021-02-17T20:17:56.729364Z,3081.0,2021-02-17T20:25:09.790479Z,11742,2021-02-17T20:18:02.497095Z,3196,"bucket9$1,:3,:11743",,,,,,,,,,,,,,,,
smi:insight.mqs/mqs2021dleu,4.5024,,135.6234,,,,,manual,reviewed,2021-02-18T19:31:23.200400Z,,1.4,,MW,,,,XB,ELYSE,BH,02,100,2021-02-18T19:36:23.200420Z,2021-02-18T19:37:03.138296Z,15283,2021-02-18T19:24:18.911852Z,0,2021-02-18T19:37:01.121583Z,15243.0,14485,2021-02-18T19:37:05.048397Z,15322,2021-02-18T19:37:59.153826Z,16404,2021-02-18T19:28:08.624587Z,4593,2021-02-18T19:36:50.587038Z,15032,2021-02-18T19:36:28.435804Z,14589.0,2021-02-18T19:43:49.069757Z,23402,2021-02-18T19:36:30.889670Z,14638,"bucket1$60,:3,:23403",,,,,,,,,2021-02-18T19:42:03.427220Z,21289.0,,,,,,
smi:insight.mqs/mqs2021dlqi,4.5024,,135.6234,,,,,manual,reviewed,2021-02-19T01:21:16.645200Z,,3.1,,MW,,,,XB,ELYSE,BH,02,100,2021-02-19T01:26:16.645281Z,2021-02-19T01:30:59.164607Z,19138,2021-02-19T01:15:02.209685Z,0,2021-02-19T01:29:31.879777Z,17393.0,13488,2021-02-19T01:29:34.353897Z,17442,2021-02-19T01:33:59.579547Z,22747,2021-02-19T01:20:02.235336Z,6000,2021-02-19T01:29:16.540234Z,17086,2021-02-19T01:26:21.545601Z,13586.0,2021-02-19T01:50:05.851700Z,42072,2021-02-19T01:26:25.331139Z,13662,"bucket0$13,:3,:42073",,,,,,,,,,,,,,,,
smi:insight.mqs/mqs2021dwrk,4.5024,,135.6234,,,,,manual,reviewed,2021-02-25T02:21:08.671000Z,,1.9,,MW,,,,XB,ELYSE,BH,02,100,2021-02-25T02:26:08.671068Z,2021-02-25T02:31:50.296863Z,15891,2021-02-25T02:18:35.702573Z,0,2021-02-25T02:30:43.012257Z,14545.0,9058,2021-02-25T02:30:47.944421Z,14644,2021-02-25T02:32:59.139991Z,17267,2021-02-25T02:22:37.440779Z,4833,2021-02-25T02:29:47.772017Z,13440,2021-02-25T02:26:28.947279Z,9464.0,2021-02-25T02:38:42.747283Z,24140,2021-02-25T02:26:42.736772Z,9739,"bucket5$84,:3,:24141",,,,,,,,,,,,,,,,
smi:insight.mqs/mqs2021fxap,4.5024,,135.6234,,,,,manual,reviewed,2021-03-25T18:06:00.703900Z,,1.8,,MW,,,,XB,ELYSE,BH,02,100,2021-03-25T18:11:00.703912Z,2021-03-25T18:15:50.150888Z,21547,2021-03-25T17:57:52.739442Z,0,2021-03-25T18:14:52.795540Z,20400.0,15758,2021-03-25T18:14:53.851135Z,20421,2021-03-25T18:20:02.434231Z,26593,2021-03-25T18:01:33.543461Z,4415,2021-03-25T18:13:44.181837Z,19028,2021-03-25T18:11:05.728354Z,15859.0,2021-03-25T18:25:56.765060Z,33679,2021-03-25T18:11:04.786929Z,15840,"bucket3$44,:3,:33680",,,,,,,,,,,,,,,,
smi:insight.mqs/mqs2021fztb,4.5024,,135.6234,,,,,manual,reviewed,2021-03-27T05:40:52.342500Z,,2.3,,MW,,,,XB,ELYSE,BH,02,100,2021-03-27T05:45:52.342554Z,2021-03-27T05:50:23.945735Z,15043,2021-03-27T05:37:51.747108Z,0,2021-03-27T05:49:33.989661Z,14044.0,9611,2021-03-27T05:49:33.875391Z,14042,2021-03-27T05:51:36.244533Z,16489,2021-03-27T05:39:40.397453Z,2172,2021-03-27T05:49:13.970405Z,13643,2021-03-27T05:46:54.265841Z,10849.0,2021-03-27T05:59:23.569865Z,25835,2021-03-27T05:48:07.620450Z,12316,"bucket5$85,:3,:25836",,,,,,,,,,,,,,,,
smi:insight.mqs/mqs2021gcxa,4.5024,,135.6234,,,,,manual,reviewed,2021-03-28T23:06:48.721800Z,,2.1,,MW,,,,XB,ELYSE,BH,02,100,2021-03-28T23:11:48.721841Z,2021-03-28T23:17:51.724574Z,21426,2021-03-28T23:00:00.337867Z,0,2021-03-28T23:16:57.685332Z,20346.0,14166,2021-03-28T23:17:01.209631Z,20416,2021-03-28T23:22:24.270315Z,26877,2021-03-28T23:05:59.816301Z,7188,2021-03-28T23:15:50.723663Z,19006,2021-03-28T23:11:59.294736Z,14378.0,2021-03-28T23:28:21.399218Z,34020,2021-03-28T23:12:05.168567Z,14495,"bucket3$45,:3,:34021",,,,,,,,,,,,,,,,
smi:insight.mqs/mqs2021geuh,4.5024,,135.6234,,,,,manual,reviewed,2021-03-30T00:00:33.182900Z,,1.8,,MW,,,,XB,ELYSE,BH,02,100,2021-03-30T00:05:33.182951Z,2021-03-30T00:11:51.599669Z,23073,2021-03-29T23:52:37.916046Z,0,2021-03-30T00:09:55.325088Z,20747.0,15505,2021-03-30T00:09:58.654979Z,20814,2021-03-30T00:13:16.664032Z,24774,2021-03-29T23:58:17.606278Z,6793,2021-03-30T00:08:57.606969Z,19593,2021-03-30T00:05:41.143371Z,15664.0,2021-03-30T00:17:40.797932Z,30057,2021-03-30T00:05:43.363299Z,15708,"bucket3$46,:3,:30058",,,,,,,,,,,,,,,,
smi:insight.mqs/mqs2021gnyy,4.5024,,135.6234,,,,,manual,reviewed,2021-04-04T00:36:22.278000Z,,1.4,,MW,,,,XB,ELYSE,BH,02,100,2021-04-04T00:41:22.278013Z,2021-04-04T00:45:34.857442Z,12023,2021-04-04T00:35:33.630159Z,0,2021-04-04T00:44:29.123123Z,10709.0,6972,2021-04-04T00:44:49.802677Z,11122,2021-04-04T00:47:52.472067Z,14776,2021-04-04T00:38:49.381174Z,3914,2021-04-04T00:44:03.273681Z,10192,2021-04-04T00:41:29.439443Z,7115.0,2021-04-04T00:52:52.854656Z,20783,2021-04-04T00:41:47.133286Z,7469,"bucket1$61,:3,:20784",,,,,,,,,,,,,,,,
smi:insight.mqs/mqs2021gnzp,4.5024,,135.6234,,,,,manual,reviewed,2021-04-04T00:54:51.748400Z,,1.4,,MW,,,,XB,ELYSE,BH,02,100,2021-04-04T00:59:51.748430Z,2021-04-04T01:05:27.634031Z,13014,2021-04-04T00:54:36.887219Z,0,2021-04-04T01:03:26.219110Z,10586.0,6296,2021-04-04T01:03:45.547985Z,10972,2021-04-04T01:08:11.089724Z,16283,2021-04-04T00:58:34.173929Z,4745,2021-04-04T01:02:58.839874Z,10038,2021-04-04T01:00:23.690872Z,6935.0,2021-04-04T01:11:57.298177Z,20807,2021-04-04T01:00:37.380490Z,7209,"bucket1$62,:3,:20808",,,,,,,,,,,,,,,,
smi:insight.mqs/mqs2021gyab,4.5024,,135.6234,,,,,manual,reviewed,2021-04-09T12:27:53.054200Z,,1.0,,MW,,,,XB,ELYSE,BH,02,100,2021-04-09T12:32:53.054259Z,2021-04-09T12:34:33.636042Z,16573,2021-04-09T12:20:44.971578Z,0,2021-04-09T12:34:03.818787Z,15976.0,14561,2021-04-09T12:33:46.637276Z,15633,2021-04-09T12:34:09.393578Z,16088,2021-04-09T12:23:23.434314Z,3169,2021-04-09T12:33:42.851519Z,15557,2021-04-09T12:33:13.178036Z,14964.0,2021-04-09T12:39:19.236344Z,22285,2021-04-09T12:33:15.658133Z,15013,"bucket1$63,:3,:22286",,,,,,,,,,,,,,,,
smi:insight.mqs/mqs2021hcwj,4.5024,,135.6234,,,,,manual,preliminary,2021-04-12T04:19:47.260700Z,,1.7,,MW,,,,XB,ELYSE,BH,02,100,2021-04-12T04:24:47.260749Z,2021-04-12T04:30:29.416280Z,19931,2021-04-12T04:13:52.784590Z,0,2021-04-12T04:29:46.278012Z,19069.0,13088,2021-04-12T04:29:58.273205Z,19309,2021-04-12T04:34:25.366167Z,24650,2021-04-12T04:18:03.702669Z,5017,2021-04-12T04:28:56.697881Z,18077,2021-04-12T04:25:07.409721Z,13491.0,2021-04-12T04:38:04.445721Z,29032,2021-04-12T04:25:14.386973Z,13631,"bucket3$47,:3,:29033",,,,,,,,,,,,,,,,
smi:insight.mqs/mqs2021hndd,4.5024,,135.6234,,,,,manual,reviewed,2021-04-17T19:05:53.824600Z,,2.1,,MW,,,,XB,ELYSE,BH,02,100,2021-04-17T19:10:53.824697Z,2021-04-17T19:13:23.875004Z,10729,2021-04-17T19:04:27.372456Z,0,2021-04-17T19:12:28.295219Z,9617.0,7728,2021-04-17T19:12:28.614227Z,9624,2021-04-17T19:14:43.842742Z,12328,2021-04-17T19:08:23.899227Z,4729,2021-04-17T19:12:07.234529Z,9196,2021-04-17T19:10:58.737886Z,7826.0,2021-04-17T19:21:00.699107Z,19865,2021-04-17T19:11:17.110459Z,8193,"bucket1$64,:3,:19866",,,,,,,,,,,,,,,,
smi:insight.mqs/mqs2021igvu,4.5024,,135.6234,,,,,manual,reviewed,2021-04-28T14:06:58.148300Z,,1.8,,MW,,,,XB,ELYSE,BH,02,100,2021-04-28T14:11:58.148395Z,2021-04-28T14:14:42.161489Z,18356,2021-04-28T13:59:24.316340Z,0,2021-04-28T14:13:15.198439Z,16616.0,15075,2021-04-28T14:13:18.655813Z,16686,2021-04-28T14:17:22.153709Z,21556,2021-04-28T14:03:05.220290Z,4417,2021-04-28T14:13:02.850676Z,16369,2021-04-28T14:12:09.508337Z,15303.0,2021-04-28T14:25:01.014109Z,30733,2021-04-28T14:12:08.520516Z,15283,"bucket3$48,:3,:30734",,,,,,,,,,,,,,,,
smi:insight.mqs/mqs2021inep,4.5024,,135.6234,,,,,manual,reviewed,2021-05-02T01:22:15.875100Z,,2.5,,MW,,,,XB,ELYSE,BH,02,100,2021-05-02T01:27:15.875120Z,2021-05-02T01:32:45.023998Z,15146,2021-05-02T01:20:07.655922Z,0,2021-05-02T01:32:09.015853Z,14426.0,8563,2021-05-02T01:32:07.368055Z,14393,2021-05-02T01:34:43.273501Z,17511,2021-05-02T01:25:44.914086Z,6744,2021-05-02T01:31:02.751821Z,13101,2021-05-02T01:27:37.014141Z,8986.0,2021-05-02T01:41:48.370789Z,26013,2021-05-02T01:29:16.435577Z,10975,"bucket5$86,:3,:26014",,,,,,,,,,,,,,,,
smi:insight.mqs/mqs2021iorc,4.5024,,135.6234,,,,,manual,reviewed,2021-05-02T20:49:31.485100Z,,1.5,,MW,,,,XB,ELYSE,BH,02,100,2021-05-02T20:54:31.485170Z,2021-05-02T20:58:58.459652Z,8751,2021-05-02T20:51:40.855081Z,0,2021-05-02T20:58:39.139605Z,8364.0,3411,2021-05-02T20:58:41.345977Z,8408,2021-05-02T21:01:26.736195Z,11716,2021-05-02T20:54:06.351055Z,2909,2021-05-02T20:57:37.145962Z,7124,2021-05-02T20:54:54.425244Z,3870.0,2021-05-02T21:04:29.787101Z,15377,2021-05-02T20:54:56.285250Z,3907,"bucket10$5,:3,:15378",,,,,,,,,,,,,,,,
smi:insight.mqs/mqs2021ismk,4.5024,,135.6234,,,,,manual,reviewed,2021-05-04T22:59:31.353700Z,,1.6,,MW,,,,XB,ELYSE,BH,02,100,2021-05-04T23:04:31.353779Z,2021-05-04T23:10:28.946665Z,16425,2021-05-04T22:56:47.638552Z,0,2021-05-04T23:09:23.705685Z,15120.0,9273,2021-05-04T23:09:15.559234Z,14957,2021-05-04T23:21:51.308010Z,30072,2021-05-04T23:00:32.202546Z,4490,2021-05-04T23:07:16.538653Z,12577,2021-05-04T23:04:44.442927Z,9535.0,2021-05-04T23:21:53.217823Z,30110,2021-05-04T23:04:45.264812Z,9551,"bucket3$49,:3,:30111",,,,,,,,,,,,,,,,
smi:insight.mqs/mqs2021iwgq,4.5024,,135.6234,,,,,manual,reviewed,2021-05-07T00:37:21.980700Z,,1.7,,MW,,,,XB,ELYSE,BH,02,100,2021-05-07T00:42:21.980760Z,2021-05-07T00:48:33.858987Z,12727,2021-05-07T00:37:57.466207Z,0,2021-05-07T00:47:31.847571Z,11487.0,5289,2021-05-07T00:48:16.337264Z,12376,2021-05-07T00:53:54.302829Z,19136,2021-05-07T00:42:06.905514Z,4988,2021-05-07T00:47:08.431943Z,11018,2021-05-07T00:42:42.274305Z,5695.0,2021-05-07T00:57:34.409732Z,23538,2021-05-07T00:42:42.239611Z,5694,"bucket1$65,:3,:23539",,,,,,,,,,,,,,,,
