source_id,latitude,latitude_errors,longitude,longitude_errors,depth,depth_errors,depth_type,origin_evaluation_mode,origievaluation_status,time,region,mag,mag_errors,magnitude_type,creation_info,evaluation_mode,evaluation_status,station_network_code,station_code,trace_channel,station_location_code,trace_sampling_rate_hz,trace_start_time,trace_Peak_M2.4_time,trace_Peak_M2.4_arrival_sample,trace_noise_start_time,trace_noise_start_arrival_sample,trace_Sg_time,trace_Sg_arrival_sample,trace_start_arrival_sample,trace_S_spectral_start_time,trace_S_spectral_start_arrival_sample,trace_S_spectral_end_time,trace_S_spectral_end_arrival_sample,trace_noise_end_time,trace_noise_end_arrival_sample,trace_P_spectral_end_time,trace_P_spectral_end_arrival_sample,trace_Pg_time,trace_Pg_arrival_sample,trace_end_time,trace_end_arrival_sample,trace_P_spectral_start_time,trace_P_spectral_start_arrival_sample,trace_name,trace_y1_time,trace_y1_arrival_sample,trace_y2_time,trace_y2_arrival_sample,trace_Peak_MbS_time,trace_Peak_MbS_arrival_sample,trace_Peak_MbP_time,trace_Peak_MbP_arrival_sample,trace_x1_time,trace_x1_arrival_sample,trace_y3_time,trace_y3_arrival_sample,trace_x3_time,trace_x3_arrival_sample,trace_x2_time,trace_x2_arrival_sample
smi:insight.mqs/mqs2019gudd,4.5024,,135.6234,,,,,manual,preliminary,2019-04-07T09:31:52.000000Z,,2.2,,MW,,,,XB,ELYSE,BH,02,100,2019-04-07T09:33:36.502750Z,2019-04-07T09:35:46.721559Z,29791,2019-04-07T09:10:57.144464Z,0,2019-04-07T09:35:00.763027Z,28872.0,27186,2019-04-07T09:35:05.074637Z,28958,2019-04-07T09:37:35.845626Z,31973,2019-04-07T09:18:33.207473Z,9121,2019-04-07T09:34:51.187836Z,28680,2019-04-07T09:33:36.369280Z,27184.0,2019-04-07T09:45:55.537266Z,41967,2019-04-07T09:33:41.092551Z,27278,"bucket0$0,:3,:41968",,,,,,,,,,,,,,,,
smi:insight.mqs/mqs2019ilml,4.5024,,135.6234,,,,,manual,preliminary,2019-05-01T03:03:36.000000Z,,1.8,,MW,,,,XB,ELYSE,BH,03,100,2019-05-01T03:13:35.784618Z,2019-05-01T03:21:34.504456Z,16341,2019-05-01T02:54:20.348945Z,0,2019-05-01T03:20:42.084046Z,15817.0,11554,2019-05-01T03:20:57.360559Z,15969,2019-05-01T03:24:20.781746Z,18004,2019-05-01T03:08:19.792122Z,8394,2019-05-01T03:20:19.662840Z,15592,2019-05-01T03:13:53.473199Z,11730.0,2019-05-01T03:29:47.077456Z,21267,2019-05-01T03:13:50.948606Z,11705,"bucket1$0,:3,:21268",,,,,,,,,,,,,,,,
smi:insight.mqs/mqs2019jrro,4.5024,,135.6234,,,,,manual,preliminary,2019-05-18T18:00:00.000000Z,,1.7,,MW,,,,XB,ELYSE,BH,03,100,2019-05-18T18:05:13.341364Z,2019-05-18T18:11:32.650295Z,6652,2019-05-18T18:00:27.385349Z,0,2019-05-18T18:10:12.249685Z,5847.0,2858,2019-05-18T18:10:33.828803Z,6063,2019-05-18T18:12:57.689589Z,7502,2019-05-18T18:04:22.878538Z,2354,2019-05-18T18:09:37.723097Z,5502,2019-05-18T18:05:15.896467Z,2884.0,2019-05-18T18:18:55.464907Z,11080,2019-05-18T18:05:54.738879Z,3272,"bucket2$0,:3,:11081",,,,,,,,,,,,,,,,
smi:insight.mqs/mqs2019krwl,4.5024,,135.6234,,,,,manual,preliminary,2019-06-02T02:00:00.000000Z,,1.5,,MW,,,,XB,ELYSE,BH,02,100,2019-06-02T02:24:01.084890Z,2019-06-02T02:30:23.087901Z,15968,2019-06-02T02:17:04.613396Z,0,2019-06-02T02:29:05.986102Z,14426.0,8328,2019-06-02T02:29:30.435698Z,14915,2019-06-02T02:36:53.584615Z,23778,2019-06-02T02:19:44.794740Z,3202,2019-06-02T02:28:40.517773Z,13917,2019-06-02T02:24:07.497291Z,8456.0,2019-06-02T02:41:23.495789Z,29176,2019-06-02T02:24:30.928153Z,8925,"bucket3$0,:3,:29177",,,,,,,,,,,,,,,,
smi:insight.mqs/mqs2019ktvp,4.5024,,135.6234,,,,,manual,preliminary,2019-06-03T03:54:19.000000Z,,1.7,,MW,,,,XB,ELYSE,BH,02,100,2019-06-03T03:55:03.998228Z,2019-06-03T04:02:52.121809Z,86191,2019-06-03T02:51:02.516628Z,0,2019-06-03T04:02:38.613670Z,85921.0,76829,2019-06-03T04:00:13.102249Z,83011,2019-06-03T04:02:36.287424Z,85875,2019-06-03T03:11:53.355421Z,25016,2019-06-03T04:00:02.336446Z,82796,2019-06-03T03:57:13.724077Z,79424.0,2019-06-03T04:10:19.261621Z,95134,2019-06-03T03:55:18.119255Z,77111,"bucket4$0,:3,:95135",,,,,,,,,,,,,,,,
smi:insight.mqs/mqs2019kxlt,4.5024,,135.6234,,,,,manual,preliminary,2019-06-05T03:25:46.000000Z,,2.0,,MW,,,,XB,ELYSE,BH,02,100,2019-06-05T03:29:15.051849Z,2019-06-05T03:36:06.072714Z,17234,2019-06-05T03:21:44.356757Z,0,2019-06-05T03:34:11.589076Z,14944.0,9013,2019-06-05T03:34:15.136591Z,15015,2019-06-05T03:39:09.318095Z,20899,2019-06-05T03:28:08.941494Z,7691,2019-06-05T03:33:10.541181Z,13723,2019-06-05T03:29:15.821021Z,9029.0,2019-06-05T03:45:25.293533Z,28418,2019-06-05T03:29:12.394250Z,8960,"bucket5$0,:3,:28419",,,,,,,,,,,,,,,,
smi:insight.mqs/mqs2019kzhk,4.5024,,135.6234,,,,,manual,preliminary,2019-06-06T03:30:19.000000Z,,1.7,,MW,,,,XB,ELYSE,BH,02,100,2019-06-06T03:32:46.151479Z,2019-06-06T03:40:39.882067Z,14246,2019-06-06T03:28:47.526733Z,0,2019-06-06T03:39:05.681815Z,12362.0,4771,2019-06-06T03:39:39.992890Z,13048,2019-06-06T03:47:51.518987Z,22878,2019-06-06T03:32:14.209584Z,4132,2019-06-06T03:38:08.230712Z,11213,2019-06-06T03:32:46.664126Z,4781.0,2019-06-06T03:49:20.108102Z,24650,2019-06-06T03:33:21.773133Z,5483,"bucket5$1,:3,:24651",,,,,,,,,,,,,,,,
smi:insight.mqs/mqs2019lmiy,4.5024,,135.6234,,,,,manual,preliminary,2019-06-13T07:02:05.000000Z,,1.7,,MW,,,,XB,ELYSE,BH,02,100,2019-06-13T06:58:14.838632Z,2019-06-13T07:03:44.853586Z,16559,2019-06-13T06:49:56.827114Z,0,2019-06-13T07:02:44.986410Z,15362.0,9959,2019-06-13T07:02:52.512705Z,15512,2019-06-13T07:07:20.950539Z,20881,2019-06-13T06:56:20.710992Z,7676,2019-06-13T07:01:30.726973Z,13877,2019-06-13T06:58:16.046824Z,9983.0,2019-06-13T07:10:51.539465Z,25093,2019-06-13T06:58:55.685308Z,10776,"bucket5$2,:3,:25094",,,,,,,,,,,,,,,,
smi:insight.mqs/mqs2019lolh,4.5024,,135.6234,,,,,manual,preliminary,2019-06-14T10:29:37.000000Z,,1.8,,MW,,,,XB,ELYSE,BH,02,100,2019-06-14T10:30:22.330049Z,2019-06-14T10:35:21.887861Z,33899,2019-06-14T10:07:06.872252Z,0,2019-06-14T10:34:41.304581Z,33087.0,27908,2019-06-14T10:35:13.272595Z,33727,2019-06-14T10:37:30.033389Z,36462,2019-06-14T10:13:16.381406Z,7389,2019-06-14T10:34:22.034262Z,32702,2019-06-14T10:29:41.787001Z,27097.0,2019-06-14T10:45:41.406166Z,46289,2019-06-14T10:30:21.389675Z,27889,"bucket0$1,:3,:46290",,,,,,,,,,,,,,,,
smi:insight.mqs/mqs2019lztc,4.5024,,135.6234,,,,,manual,preliminary,2019-06-20T14:56:41.000000Z,,1.6,,MW,,,,XB,ELYSE,BH,02,100,2019-06-20T15:02:30.846387Z,2019-06-20T15:08:02.585808Z,13920,2019-06-20T14:56:26.563069Z,0,2019-06-20T15:06:59.163423Z,12651.0,7285,2019-06-20T15:07:31.743974Z,13303,2019-06-20T15:12:03.720753Z,18743,2019-06-20T14:58:56.110957Z,2990,2019-06-20T15:06:09.584323Z,11660,2019-06-20T15:02:37.102465Z,7410.0,2019-06-20T15:14:11.292910Z,21294,2019-06-20T15:02:48.434831Z,7637,"bucket1$1,:3,:21295",,,,,,,,,,,,,,,,
smi:insight.mqs/mqs2019mbpd,4.5024,,135.6234,,,,,manual,reviewed,2019-06-21T15:08:05.945700Z,,1.7,,MW,,,,XB,ELYSE,BH,02,100,2019-06-21T15:13:05.945711Z,2019-06-21T15:19:50.727815Z,18374,2019-06-21T15:04:32.005609Z,0,2019-06-21T15:17:16.501612Z,15289.0,10278,2019-06-21T15:17:27.436341Z,15508,2019-06-21T15:21:56.791690Z,20895,2019-06-21T15:11:53.376899Z,8827,2019-06-21T15:16:51.715381Z,14793,2019-06-21T15:13:22.874576Z,10617.0,2019-06-21T15:24:11.739915Z,23594,2019-06-21T15:15:31.584578Z,13191,"bucket1$2,:3,:23595",,,,,,,,,,,,,,,,
smi:insight.mqs/mqs2019mdig,4.5024,,135.6234,,,,,manual,preliminary,2019-06-22T14:00:03.000000Z,,1.6,,MW,,,,XB,ELYSE,BH,02,100,2019-06-22T14:01:40.134300Z,2019-06-22T14:04:33.534737Z,17566,2019-06-22T13:49:55.226999Z,0,2019-06-22T14:04:07.987042Z,17055.0,14098,2019-06-22T14:04:02.091127Z,16937,2019-06-22T14:06:18.488568Z,19665,2019-06-22T13:55:56.283840Z,7221,2019-06-22T14:02:57.801887Z,15651,2019-06-22T14:01:35.445072Z,14004.0,2019-06-22T14:14:01.114976Z,28917,2019-06-22T14:01:56.553354Z,14426,"bucket3$1,:3,:28918",,,,,,,,,,,,,,,,
smi:insight.mqs/mqs2019mdlt,4.5024,,135.6234,,,,,manual,preliminary,2019-06-22T15:46:19.000000Z,,1.7,,MW,,,,XB,ELYSE,BH,02,100,2019-06-22T15:50:25.592586Z,2019-06-22T15:56:46.268538Z,11439,2019-06-22T15:47:14.265942Z,0,2019-06-22T15:54:00.122795Z,8116.0,3826,2019-06-22T15:53:37.822848Z,7670,2019-06-22T15:55:58.595474Z,10486,2019-06-22T15:49:33.697279Z,2788,2019-06-22T15:53:30.940631Z,7533,2019-06-22T15:49:43.018022Z,2974.0,2019-06-22T16:07:28.237414Z,24279,2019-06-22T15:51:33.942937Z,5193,"bucket5$3,:3,:24280",,,,,,,,,,,,,,,,
smi:insight.mqs/mqs2019mfkb,4.5024,,135.6234,,,,,manual,preliminary,2019-06-23T17:11:40.000000Z,,1.7,,MW,,,,XB,ELYSE,BH,02,100,2019-06-23T17:17:37.535874Z,2019-06-23T17:24:12.096317Z,22028,2019-06-23T17:05:50.678052Z,0,2019-06-23T17:23:54.998198Z,21686.0,14137,2019-06-23T17:24:26.995921Z,22326,2019-06-23T17:30:05.354819Z,29093,2019-06-23T17:09:43.819376Z,4662,2019-06-23T17:23:10.065226Z,20787,2019-06-23T17:17:49.033444Z,14367.0,2019-06-23T17:31:02.210971Z,30230,2019-06-23T17:17:46.159051Z,14309,"bucket3$2,:3,:30231",,,,,,,,,,,,,,,,
smi:insight.mqs/mqs2019muva,4.5024,,135.6234,,,,,manual,reviewed,2019-07-02T03:41:09.561200Z,,1.7,,MW,,,,XB,ELYSE,BH,02,100,2019-07-02T03:46:09.561263Z,2019-07-02T03:52:42.492116Z,34228,2019-07-02T03:24:11.024165Z,0,2019-07-02T03:52:07.340303Z,33525.0,26370,2019-07-02T03:52:11.164231Z,33602,2019-07-02T03:53:18.804766Z,34954,2019-07-02T03:36:12.368362Z,14426,2019-07-02T03:50:47.473400Z,31928,2019-07-02T03:47:23.633897Z,27851.0,2019-07-02T04:00:10.467518Z,43188,2019-07-02T03:47:37.162743Z,28122,"bucket0$2,:3,:43189",,,,,,,,,,,,,,,,
smi:insight.mqs/mqs2019mvcm,4.5024,,135.6234,,,,,manual,reviewed,2019-07-02T07:28:49.988300Z,,1.6,,MW,,,,XB,ELYSE,BH,02,100,2019-07-02T07:33:49.988357Z,2019-07-02T07:39:23.853599Z,19085,2019-07-02T07:23:29.574801Z,0,2019-07-02T07:38:35.352471Z,18115.0,12408,2019-07-02T07:38:48.367867Z,18375,2019-07-02T07:44:27.716990Z,25162,2019-07-02T07:31:42.381920Z,9855,2019-07-02T07:37:55.902706Z,17326,2019-07-02T07:33:47.837068Z,12365.0,2019-07-02T07:48:57.194594Z,30552,2019-07-02T07:33:57.018784Z,12548,"bucket3$3,:3,:30553",,,,,,,,,,,,,,,,
smi:insight.mqs/mqs2019mwwk,4.5024,,135.6234,,,,,manual,preliminary,2019-07-03T06:43:59.000000Z,,2.2,,MW,,,,XB,ELYSE,BH,02,100,2019-07-03T06:44:22.785108Z,2019-07-03T06:50:48.298227Z,15872,2019-07-03T06:37:34.678594Z,0,2019-07-03T06:50:30.170175Z,15509.0,8161,2019-07-03T06:50:45.188810Z,15809,2019-07-03T06:52:33.900741Z,17984,2019-07-03T06:44:05.236272Z,7810,2019-07-03T06:48:55.134756Z,13608,2019-07-03T06:44:54.556592Z,8797.0,2019-07-03T07:01:33.388522Z,28773,2019-07-03T06:45:39.184855Z,9689,"bucket3$4,:3,:28774",,,,,,,,,,,,,,,,
smi:insight.mqs/mqs2019nbty,4.5024,,135.6234,,,,,manual,preliminary,2019-07-05T23:10:18.000000Z,,1.7,,MW,,,,XB,ELYSE,BH,02,100,2019-07-05T23:12:38.987514Z,2019-07-05T23:18:09.972006Z,19944,2019-07-05T23:01:32.739095Z,0,2019-07-05T23:18:09.115973Z,19927.0,13324,2019-07-05T23:18:17.624811Z,20097,2019-07-05T23:20:19.409627Z,22533,2019-07-05T23:08:59.064895Z,8926,2019-07-05T23:17:44.388149Z,19432,2019-07-05T23:12:39.983125Z,13344.0,2019-07-05T23:26:26.435762Z,29873,2019-07-05T23:12:40.497310Z,13354,"bucket3$5,:3,:29874",,,,,,,,,,,,,,,,
smi:insight.mqs/mqs2019ncpf,4.5024,,135.6234,,,,,manual,preliminary,2019-07-06T09:55:17.000000Z,,1.6,,MW,,,,XB,ELYSE,BH,02,100,2019-07-06T10:01:07.601108Z,2019-07-06T10:01:08.485906Z,2987,2019-07-06T09:58:39.066858Z,0,2019-07-06T10:05:13.559394Z,7889.0,2970,2019-07-06T10:05:15.112293Z,7920,2019-07-06T10:06:54.504073Z,9908,2019-07-06T10:00:48.058648Z,2579,2019-07-06T10:04:47.742091Z,7373,2019-07-06T10:01:07.758222Z,2973.0,2019-07-06T10:15:40.229737Z,20422,2019-07-06T10:01:08.678435Z,2991,"bucket1$3,:3,:20423",,,,,,,,,,,,,,,,
smi:insight.mqs/mqs2019ndqu,4.5024,,135.6234,,,,,manual,preliminary,2019-07-06T23:51:24.000000Z,,1.6,,MW,,,,XB,ELYSE,BH,02,100,2019-07-06T23:51:10.405539Z,2019-07-06T23:56:13.268662Z,18021,2019-07-06T23:41:12.157144Z,0,2019-07-06T23:54:55.137524Z,16459.0,11964,2019-07-06T23:55:01.106658Z,16578,2019-07-07T00:02:53.205058Z,26020,2019-07-06T23:50:57.326523Z,11703,2019-07-06T23:54:28.218904Z,15920,2019-07-06T23:51:11.577787Z,11988.0,2019-07-07T00:04:41.215072Z,28180,2019-07-06T23:51:24.684021Z,12250,"bucket5$4,:3,:28181",,,,,,,,,,,,,,,,
smi:insight.mqs/mqs2019nhry,4.5024,,135.6234,,,,,manual,preliminary,2019-07-09T04:58:25.000000Z,,2.2,,MW,,,,XB,ELYSE,BH,02,100,2019-07-09T05:03:00.088851Z,2019-07-09T05:09:30.616231Z,23729,2019-07-09T04:49:44.129731Z,0,,,15918,2019-07-09T05:08:43.028247Z,22777,2019-07-09T05:11:51.314466Z,26543,2019-07-09T05:00:49.566920Z,13308,2019-07-09T05:07:23.400595Z,21184,,,2019-07-09T05:18:53.673468Z,34990,2019-07-09T05:03:04.610727Z,16009,"bucket6$0,:3,:34991",2019-07-09T05:03:01.014722Z,15937.0,2019-07-09T05:08:37.249700Z,22661.0,,,,,,,,,,,,
smi:insight.mqs/mqs2019njef,4.5024,,135.6234,,,,,manual,reviewed,2019-07-10T00:15:28.232700Z,,1.8,,MW,,,,XB,ELYSE,BH,02,100,2019-07-10T00:20:28.232776Z,2019-07-10T00:29:42.180616Z,11078,2019-07-10T00:40:29.070309Z,24016,2019-07-10T00:28:25.191859Z,9538.0,0,2019-07-10T00:28:42.613203Z,9887,2019-07-10T00:31:17.383918Z,12982,2019-07-10T00:51:06.649248Z,36767,2019-07-10T00:27:54.462314Z,8924,2019-07-10T00:22:38.164065Z,2598.0,2019-07-10T00:38:12.801451Z,21291,2019-07-10T00:24:41.858758Z,5072,"bucket6$1,:3,:36769",,,,,,,,,,,,,,,,
smi:insight.mqs/mqs2019njig,4.5024,,135.6234,,,,,manual,preliminary,2019-07-10T02:21:29.000000Z,,1.7,,MW,,,,XB,ELYSE,BH,02,100,2019-07-10T02:21:29.535893Z,2019-07-10T02:27:22.569407Z,45957,2019-07-10T01:49:04.661423Z,0,2019-07-10T02:25:57.489779Z,44256.0,38896,2019-07-10T02:25:35.601945Z,43818,2019-07-10T02:28:15.546639Z,47017,2019-07-10T01:58:35.030237Z,11406,2019-07-10T02:25:32.584121Z,43757,2019-07-10T02:21:36.535104Z,39036.0,2019-07-10T02:36:08.062975Z,56467,2019-07-10T02:21:25.122520Z,38808,bucket7,,,,,,,,,,,,,,,,
smi:insight.mqs/mqs2019njke,4.5024,,135.6234,,,,,manual,preliminary,2019-07-10T03:19:32.000000Z,,1.6,,MW,,,,XB,ELYSE,BH,02,100,2019-07-10T03:19:56.622917Z,2019-07-10T03:25:54.589701Z,25161,2019-07-10T03:04:56.500286Z,0,2019-07-10T03:25:03.159292Z,24132.0,18001,2019-07-10T03:25:14.075009Z,24350,2019-07-10T03:33:19.377082Z,34056,2019-07-10T03:18:33.098323Z,16331,2019-07-10T03:24:39.717341Z,23663,2019-07-10T03:20:14.301792Z,18355.0,2019-07-10T03:37:58.833515Z,39646,2019-07-10T03:20:14.519084Z,18359,"bucket6$2,:3,:39647",,,,,,,,,,,,,,,,
smi:insight.mqs/mqs2019nnau,4.5024,,135.6234,,,,,manual,reviewed,2019-07-12T03:03:21.874800Z,,1.6,,MW,,,,XB,ELYSE,BH,02,100,2019-07-12T03:08:21.874839Z,2019-07-12T03:14:29.349574Z,27666,2019-07-12T02:51:26.010093Z,0,2019-07-12T03:13:03.510431Z,25949.0,20316,2019-07-12T03:13:17.673265Z,26232,2019-07-12T03:16:04.066957Z,29560,2019-07-12T02:59:19.867091Z,9476,2019-07-12T03:12:18.199215Z,25043,2019-07-12T03:08:43.134442Z,20741.0,2019-07-12T03:19:50.371862Z,34086,2019-07-12T03:08:49.037667Z,20860,"bucket3$6,:3,:34087",,,,,,,,,,,,,,,,
smi:insight.mqs/mqs2019nnbx,4.5024,,135.6234,,,,,manual,reviewed,2019-07-12T03:35:46.869100Z,,1.5,,MW,,,,XB,ELYSE,BH,02,100,2019-07-12T03:40:46.869114Z,2019-07-12T03:47:48.303309Z,8428,2019-07-12T04:00:53.957746Z,24141,2019-07-12T03:45:07.229900Z,5206.0,0,2019-07-12T03:45:13.951677Z,5341,2019-07-12T03:48:40.916024Z,9480,2019-07-12T04:09:02.592813Z,33914,2019-07-12T03:44:30.587718Z,4474,2019-07-12T03:41:07.953279Z,421.0,2019-07-12T03:49:02.411104Z,9910,2019-07-12T03:41:12.493272Z,512,"bucket3$7,:3,:33915",,,,,,,,,,,,,,,,
smi:insight.mqs/mqs2019noxa,4.5024,,135.6234,,,,,manual,preliminary,2019-07-13T03:30:12.000000Z,,1.6,,MW,,,,XB,ELYSE,BH,02,100,2019-07-13T03:32:44.165683Z,2019-07-13T03:38:24.059349Z,9871,2019-07-13T03:30:10.455599Z,0,2019-07-13T03:36:17.261323Z,7335.0,3073,2019-07-13T03:36:21.178518Z,7413,2019-07-13T03:40:25.874783Z,12307,2019-07-13T03:32:23.317239Z,2656,2019-07-13T03:35:40.395807Z,6598,2019-07-13T03:32:39.752227Z,2985.0,2019-07-13T03:45:15.940942Z,18108,2019-07-13T03:32:41.971448Z,3029,"bucket8$0,:3,:18109",,,,,,,,,,,,,,,,
smi:insight.mqs/mqs2019nwhc,4.5024,,135.6234,,,,,manual,reviewed,2019-07-17T04:28:02.477500Z,,1.2,,MW,,,,XB,ELYSE,BH,02,100,2019-07-17T04:33:02.477519Z,2019-07-17T04:35:25.857471Z,2867,2019-07-17T04:46:04.149063Z,15632,2019-07-17T04:34:40.313564Z,1956.0,0,2019-07-17T04:34:54.771553Z,2245,2019-07-17T04:38:22.892630Z,6407,2019-07-17T04:50:52.231063Z,21394,2019-07-17T04:34:17.607075Z,1502,2019-07-17T04:33:03.253019Z,14.0,2019-07-17T04:41:18.631466Z,9922,2019-07-17T04:33:21.329436Z,376,"bucket1$4,:3,:21395",,,,,,,,,,,,,,,,
smi:insight.mqs/mqs2019nwlf,4.5024,,135.6234,,,,,manual,preliminary,2019-07-17T06:32:05.322900Z,,1.6,,MW,,,,XB,ELYSE,BH,02,100,2019-07-17T06:37:05.322933Z,2019-07-17T06:43:14.545977Z,7384,2019-07-17T06:49:53.434133Z,15361,2019-07-17T06:42:07.969350Z,6052.0,0,2019-07-17T06:42:14.562664Z,6184,2019-07-17T06:46:56.589300Z,11824,2019-07-17T06:57:06.239449Z,24017,2019-07-17T06:41:41.164773Z,5516,2019-07-17T06:37:28.813291Z,469.0,2019-07-17T06:47:20.635883Z,12305,2019-07-17T06:38:12.118714Z,1335,"bucket5$5,:3,:24018",,,,,,,,,,,,,,,,
smi:insight.mqs/mqs2019nykv,4.5024,,135.6234,,,,,manual,preliminary,2019-07-18T08:41:45.000000Z,,1.7,,MW,,,,XB,ELYSE,BH,02,100,2019-07-18T08:43:56.867128Z,2019-07-18T08:50:06.822950Z,32549,2019-07-18T08:22:59.315922Z,0,2019-07-18T08:48:42.769249Z,30868.0,25150,2019-07-18T08:48:39.316463Z,30799,2019-07-18T08:51:23.620318Z,34085,2019-07-18T08:38:35.012454Z,18713,2019-07-18T08:47:38.050618Z,29574,2019-07-18T08:44:28.052126Z,25774.0,2019-07-18T08:58:38.205064Z,42777,2019-07-18T08:44:00.835352Z,25229,"bucket0$3,:3,:42778",,,,,,,,,,,,,,,,
smi:insight.mqs/mqs2019oadn,4.5024,,135.6234,,,,,manual,preliminary,2019-07-19T07:12:52.117500Z,,1.4,,MW,,,,XB,ELYSE,BH,02,100,2019-07-19T07:17:52.117552Z,2019-07-19T07:22:39.577573Z,5748,2019-07-19T07:34:05.763840Z,19472,2019-07-19T07:21:23.542024Z,4227.0,0,2019-07-19T07:21:32.716430Z,4411,2019-07-19T07:26:38.935849Z,10535,2019-07-19T07:40:32.237736Z,27201,2019-07-19T07:20:58.814015Z,3733,2019-07-19T07:18:13.136359Z,419.0,2019-07-19T07:29:13.901172Z,13635,2019-07-19T07:18:10.281485Z,362,"bucket5$6,:3,:27202",,,,,,,,,,,,,,,,
smi:insight.mqs/mqs2019oaid,4.5024,,135.6234,,,,,manual,preliminary,2019-07-19T09:36:34.000000Z,,1.9,,MW,,,,XB,ELYSE,BH,02,100,2019-07-19T09:38:15.396682Z,2019-07-19T09:42:56.958922Z,8005,2019-07-19T09:36:16.655081Z,0,2019-07-19T09:42:21.315577Z,7292.0,2374,2019-07-19T09:41:41.072024Z,6487,2019-07-19T09:43:53.291886Z,9132,2019-07-19T09:38:22.378089Z,2513,2019-07-19T09:41:21.483896Z,6095,2019-07-19T09:38:29.113720Z,2648.0,2019-07-19T09:52:21.660437Z,19299,2019-07-19T09:38:25.190746Z,2570,"bucket8$1,:3,:19300",,,,,,,,,,,,,,,,
smi:insight.mqs/mqs2019ocbz,4.5024,,135.6234,,,,,manual,preliminary,2019-07-20T08:46:52.000000Z,,1.6,,MW,,,,XB,ELYSE,BH,02,100,2019-07-20T08:50:08.453803Z,2019-07-20T08:55:59.460047Z,16933,2019-07-20T08:41:52.802551Z,0,2019-07-20T08:55:05.118377Z,15846.0,9912,2019-07-20T08:55:09.234140Z,15928,2019-07-20T09:02:21.491448Z,24573,2019-07-20T08:49:00.858700Z,8561,2019-07-20T08:54:46.533537Z,15474,2019-07-20T08:50:23.814964Z,10220.0,2019-07-20T09:04:03.743805Z,26618,2019-07-20T08:50:37.772767Z,10499,"bucket5$7,:3,:26619",,,,,,,,,,,,,,,,
smi:insight.mqs/mqs2019ofru,4.5024,,135.6234,,,,,manual,preliminary,2019-07-22T08:09:45.000000Z,,2.0,,MW,,,,XB,ELYSE,BH,02,100,2019-07-22T08:09:53.836173Z,2019-07-22T08:17:13.806803Z,12184,2019-07-22T08:07:04.568540Z,0,2019-07-22T08:14:24.105122Z,8790.0,3384,2019-07-22T08:14:38.245968Z,9072,2019-07-22T08:18:44.968143Z,14007,2019-07-22T08:09:37.541971Z,3058,2019-07-22T08:11:50.888968Z,5725,2019-07-22T08:10:11.241371Z,3732.0,2019-07-22T08:23:42.275453Z,19953,2019-07-22T08:10:02.193185Z,3551,"bucket1$5,:3,:19954",,,,,,,,,,,,,,,,
smi:insight.mqs/mqs2019olmv,4.5024,,135.6234,,,,,manual,preliminary,2019-07-25T12:28:10.000000Z,,1.2,,MW,,,,XB,ELYSE,BH,02,100,2019-07-25T12:35:08.639128Z,2019-07-25T12:39:40.706167Z,8489,2019-07-25T12:32:36.175998Z,0,2019-07-25T12:37:37.030770Z,6016.0,3048,2019-07-25T12:39:04.706789Z,7769,2019-07-25T12:43:27.163334Z,13019,2019-07-25T12:35:00.425970Z,2884,2019-07-25T12:37:30.740865Z,5890,2019-07-25T12:35:15.102190Z,3177.0,2019-07-25T12:43:48.009497Z,13436,2019-07-25T12:35:33.013444Z,3536,"bucket9$0,:3,:13437",,,,,,,,,,,,,,,,
